name;Style/IconStyle/Icon/href;longitude;latitude;municipio__id;municipio;uf
"Mineradora: Mineração Taboca S.a. 
Barragem: 189";http://maps.google.com/mapfiles/ms/icons/red-dot.png;-60.0130277777778;-0.789555555555556;1304302;Urucará;AM
"Mineradora: Empresa de Mineração e Pesquisa do Amapá 
Barragem: BARRAGEM DA USINA";http://maps.google.com/mapfiles/ms/icons/red-dot.png;-51.6905833333333;2.32119444444444;1600204;Calçoene;AP
"Mineradora: ORO AMAPA MINERAÇÃO LTDA 
Barragem: REJEITO USINA";http://maps.google.com/mapfiles/ms/icons/red-dot.png;-51.6333333333333;2.28583333333333;1600204;Calçoene;AP
"Mineradora: Zamapá Mineração S.a. 
Barragem: Barragem de Clarificação de Água";http://maps.google.com/mapfiles/ms/icons/red-dot.png;-51.1288888888889;1.00197222222222;1600238;Ferreira Gomes;AP
"Mineradora: Mineração Vila Nova Ltda 
Barragem: Bacuri";http://maps.google.com/mapfiles/ms/icons/red-dot.png;-51.7227777777778;0.3795;1600402;Mazagão;AP
"Mineradora: Mineração Vila Nova Ltda 
Barragem: SAMACA";http://maps.google.com/mapfiles/ms/icons/red-dot.png;-51.8378611111111;0.351611111111111;1600402;Mazagão;AP
"Mineradora: Unamgen Mineração e Metalurgia S.a. 
Barragem: VILA NOVA";http://maps.google.com/mapfiles/ms/icons/yellow-dot.png;-51.7578088888889;0.401673888888889;1600402;Mazagão;AP
"Mineradora: MINA TUCANO LTDA. 
Barragem: Leste";http://maps.google.com/mapfiles/ms/icons/red-dot.png;-51.8870583333333;0.875675;1600154;Pedra Branca do Amapari;AP
"Mineradora: MINA TUCANO LTDA. 
Barragem: TAP D";http://maps.google.com/mapfiles/ms/icons/yellow-dot.png;-51.8902777777778;0.840833333333333;1600154;Pedra Branca do Amapari;AP
"Mineradora: Zamin Amapá Mineração S.a. 
Barragem: Mario Cruz";http://maps.google.com/mapfiles/ms/icons/yellow-dot.png;-51.8745258333333;0.800835833333333;1600154;Pedra Branca do Amapari;AP
"Mineradora: MINA TUCANO LTDA. 
Barragem: North Mill Pond";http://maps.google.com/mapfiles/ms/icons/yellow-dot.png;-51.7283333333333;0.860611111111111;1600535;Porto Grande;AP
"Mineradora: Cadam S.a. 
Barragem: Barragem da Cava";http://maps.google.com/mapfiles/ms/icons/yellow-dot.png;-52.3789708333333;-0.897686944444445;1600808;Vitória do Jari;AP
"Mineradora: Cadam S.a. 
Barragem: Barragem do Felipe";http://maps.google.com/mapfiles/ms/icons/red-dot.png;-52.3805833333333;-0.882444444444444;1600808;Vitória do Jari;AP
"Mineradora: Cadam S.a. 
Barragem: Barragem do Muriacá";http://maps.google.com/mapfiles/ms/icons/red-dot.png;-52.3640833333333;-0.893666666666667;1600808;Vitória do Jari;AP
"Mineradora: Cia de Ferro Ligas da Bahia Ferbasa 
Barragem: Medrado 1";http://maps.google.com/mapfiles/ms/icons/red-dot.png;-39.7672222222222;-10.3141666666667;2901353;Andorinha;BA
"Mineradora: Cia de Ferro Ligas da Bahia Ferbasa 
Barragem: Medrado 2";http://maps.google.com/mapfiles/ms/icons/red-dot.png;-39.7658333333333;-10.3149166666667;2901353;Andorinha;BA
"Mineradora: Cia de Ferro Ligas da Bahia Ferbasa 
Barragem: Medrado 3";http://maps.google.com/mapfiles/ms/icons/red-dot.png;-39.7658333333333;-10.3155555555556;2901353;Andorinha;BA
"Mineradora: Fazenda Brasileiro Desenvolvimento Mineral Ltda. 
Barragem: BARRAGEM USINA/CIP - LAGO 1 E 2";http://maps.google.com/mapfiles/ms/icons/yellow-dot.png;-39.0897222222222;-11.4497222222222;2903276;Barrocas;BA
"Mineradora: Fazenda Brasileiro Desenvolvimento Mineral Ltda. 
Barragem: BARRAGEM USINA/CIP - LAGO 3";http://maps.google.com/mapfiles/ms/icons/yellow-dot.png;-39.0711958333333;-11.4471338888889;2903276;Barrocas;BA
"Mineradora: Fazenda Brasileiro Desenvolvimento Mineral Ltda. 
Barragem: BARRAGEM USINA/CIP - LAGO 4";http://maps.google.com/mapfiles/ms/icons/yellow-dot.png;-39.0980555555556;-11.4480555555556;2903276;Barrocas;BA
"Mineradora: Magnesita Mineração S.A. 
Barragem: BACIA DE SEDIMENTO DA USINA DE TRATAMENTO";http://maps.google.com/mapfiles/ms/icons/red-dot.png;-41.7196944444444;-14.2337777777778;2904605;Brumado;BA
"Mineradora: XILOLITE S/A 
Barragem: BARRAGEM DE DEPOSIÇÃO DE LAMA";http://maps.google.com/mapfiles/ms/icons/red-dot.png;-41.6892055555556;-14.0979305555556;2904605;Brumado;BA
"Mineradora: Cia de Ferro Ligas da Bahia Ferbasa 
Barragem: Cava Camarinha";http://maps.google.com/mapfiles/ms/icons/red-dot.png;-40.4251944444444;-10.5456111111111;2906006;Campo Formoso;BA
"Mineradora: Mineração Caraíba S.a. 
Barragem: Barragem MCSA";http://maps.google.com/mapfiles/ms/icons/yellow-dot.png;-39.8265833333333;-9.85113888888889;2909901;Curaçá;BA
"Mineradora: Mineração Caraíba S.a. 
Barragem: Dique 3";http://maps.google.com/mapfiles/ms/icons/red-dot.png;-39.8249166666667;-9.83147222222222;2909901;Curaçá;BA
"Mineradora: Mineração Caraíba S.a. 
Barragem: Pilha 01 - P1C1";http://maps.google.com/mapfiles/ms/icons/red-dot.png;-39.8622966666667;-9.852825;2909901;Curaçá;BA
"Mineradora: Mineração Caraíba S.a. 
Barragem: Pilha 01 - P1C5";http://maps.google.com/mapfiles/ms/icons/red-dot.png;-39.8633438888889;-9.85213;2909901;Curaçá;BA
"Mineradora: Mineração Caraíba S.a. 
Barragem: PILHA 01 - PIC1A";http://maps.google.com/mapfiles/ms/icons/red-dot.png;-39.8615788888889;-9.85333;2909901;Curaçá;BA
"Mineradora: Mineração Caraíba S.a. 
Barragem: PILHA01-C12";http://maps.google.com/mapfiles/ms/icons/red-dot.png;-39.861645;-9.85375916666667;2909901;Curaçá;BA
"Mineradora: Companhia Baiana de Pesquisa Mineral 
Barragem: Barragem de Rejeitos de Irecê";http://maps.google.com/mapfiles/ms/icons/red-dot.png;-41.8394444444444;-11.3119444444444;2914604;Irecê;BA
"Mineradora: ATLANTIC NICKEL MINERACAO LTDA 
Barragem: Barragem Santa Rita";http://maps.google.com/mapfiles/ms/icons/yellow-dot.png;-39.6971408333333;-14.1891088888889;2915205;Itagibá;BA
"Mineradora: ATLANTIC NICKEL MINERACAO LTDA 
Barragem: Dique Santa Rita";http://maps.google.com/mapfiles/ms/icons/red-dot.png;-39.6916497222222;-14.1965408333333;2915205;Itagibá;BA
"Mineradora: Jacobina Mineração e Comércio Ltda 
Barragem: Barragem 01";http://maps.google.com/mapfiles/ms/icons/yellow-dot.png;-40.52575;-11.2436388888889;2917508;Jacobina;BA
"Mineradora: Jacobina Mineração e Comércio Ltda 
Barragem: BARRAGEM 02";http://maps.google.com/mapfiles/ms/icons/yellow-dot.png;-40.5290833333333;-11.2351111111111;2917508;Jacobina;BA
"Mineradora: Mineração Caraíba S.a. 
Barragem: BARAÚNA - PBC1";http://maps.google.com/mapfiles/ms/icons/red-dot.png;-39.8704988888889;-9.87471694444445;2917706;Jaguarari;BA
"Mineradora: Mineração Caraíba S.a. 
Barragem: BARAÚNA - PBC2";http://maps.google.com/mapfiles/ms/icons/red-dot.png;-39.8706447222222;-9.87388083333333;2917706;Jaguarari;BA
"Mineradora: Mineração Caraíba S.a. 
Barragem: BARAÚNA - PBC3";http://maps.google.com/mapfiles/ms/icons/red-dot.png;-39.8715719444444;-9.87495472222222;2917706;Jaguarari;BA
"Mineradora: Mineração Caraíba S.a. 
Barragem: Cava Sul";http://maps.google.com/mapfiles/ms/icons/red-dot.png;-39.8714444444444;-9.87147222222222;2917706;Jaguarari;BA
"Mineradora: Mineração Caraíba S.a. 
Barragem: P6C01";http://maps.google.com/mapfiles/ms/icons/red-dot.png;-39.8700669444444;-9.87821;2917706;Jaguarari;BA
"Mineradora: Mineração Caraíba S.a. 
Barragem: P6C02";http://maps.google.com/mapfiles/ms/icons/red-dot.png;-39.8714058333333;-9.87906277777778;2917706;Jaguarari;BA
"Mineradora: Mineração Caraíba S.a. 
Barragem: P6C4";http://maps.google.com/mapfiles/ms/icons/red-dot.png;-39.8701527777778;-9.87694388888889;2917706;Jaguarari;BA
"Mineradora: Mineração Caraíba S.a. 
Barragem: PILHA 01 - P1C14";http://maps.google.com/mapfiles/ms/icons/red-dot.png;-39.8657077777778;-9.85697;2917706;Jaguarari;BA
"Mineradora: Mineração Caraíba S.a. 
Barragem: PILHA 01 - P1C15";http://maps.google.com/mapfiles/ms/icons/red-dot.png;-39.8666797222222;-9.85315611111111;2917706;Jaguarari;BA
"Mineradora: Mineração Caraíba S.a. 
Barragem: Pilha 01 - P1C3";http://maps.google.com/mapfiles/ms/icons/red-dot.png;-39.8665358333333;-9.85424583333333;2917706;Jaguarari;BA
"Mineradora: Mineração Caraíba S.a. 
Barragem: Pilha 01 - P1C4";http://maps.google.com/mapfiles/ms/icons/red-dot.png;-39.8672558333333;-9.85546083333333;2917706;Jaguarari;BA
"Mineradora: Mineração Caraíba S.a. 
Barragem: Pilha 01 - P1C6";http://maps.google.com/mapfiles/ms/icons/red-dot.png;-39.8649441666667;-9.85305694444444;2917706;Jaguarari;BA
"Mineradora: Mineração Caraíba S.a. 
Barragem: Pilha 01 - P1C7";http://maps.google.com/mapfiles/ms/icons/red-dot.png;-39.8651108333333;-9.85535277777778;2917706;Jaguarari;BA
"Mineradora: Mineração Caraíba S.a. 
Barragem: Pilha 01 - P1C8";http://maps.google.com/mapfiles/ms/icons/red-dot.png;-39.8633597222222;-9.85733555555555;2917706;Jaguarari;BA
"Mineradora: Mineração Caraíba S.a. 
Barragem: Pilha 01 - P1C9";http://maps.google.com/mapfiles/ms/icons/red-dot.png;-39.8627697222222;-9.85580694444444;2917706;Jaguarari;BA
"Mineradora: Mineração Caraíba S.a. 
Barragem: Pilha 01 P1C2";http://maps.google.com/mapfiles/ms/icons/red-dot.png;-39.8639872222222;-9.8554425;2917706;Jaguarari;BA
"Mineradora: Mineração Caraíba S.a. 
Barragem: PILHA 05 - P5C07";http://maps.google.com/mapfiles/ms/icons/red-dot.png;-39.8671697222222;-9.88128888888889;2917706;Jaguarari;BA
"Mineradora: Mineração Caraíba S.a. 
Barragem: PILHA 05 - P5C08";http://maps.google.com/mapfiles/ms/icons/red-dot.png;-39.8678744444444;-9.87754388888889;2917706;Jaguarari;BA
"Mineradora: Mineração Caraíba S.a. 
Barragem: PILHA 05 - P5C09";http://maps.google.com/mapfiles/ms/icons/red-dot.png;-39.8662025;-9.87986333333333;2917706;Jaguarari;BA
"Mineradora: Mineração Caraíba S.a. 
Barragem: Pilha 05 - P5C1";http://maps.google.com/mapfiles/ms/icons/red-dot.png;-39.86517;-9.87948833333333;2917706;Jaguarari;BA
"Mineradora: Mineração Caraíba S.a. 
Barragem: Pilha 05 - P5C2";http://maps.google.com/mapfiles/ms/icons/red-dot.png;-39.8681688888889;-9.87685777777778;2917706;Jaguarari;BA
"Mineradora: Mineração Caraíba S.a. 
Barragem: Pilha 05 - P5C3";http://maps.google.com/mapfiles/ms/icons/red-dot.png;-39.8642405555556;-9.88015916666667;2917706;Jaguarari;BA
"Mineradora: Mineração Caraíba S.a. 
Barragem: Pilha 05 - P5C4";http://maps.google.com/mapfiles/ms/icons/red-dot.png;-39.8689169444444;-9.87520472222222;2917706;Jaguarari;BA
"Mineradora: Mineração Caraíba S.a. 
Barragem: Pilha 05 - P5C5";http://maps.google.com/mapfiles/ms/icons/red-dot.png;-39.86882;-9.87887388888889;2917706;Jaguarari;BA
"Mineradora: Mineração Caraíba S.a. 
Barragem: Pilha 05 - P5XC2";http://maps.google.com/mapfiles/ms/icons/red-dot.png;-39.8652186111111;-9.87565027777778;2917706;Jaguarari;BA
"Mineradora: Mineração Caraíba S.a. 
Barragem: Pilha 05 - XC1";http://maps.google.com/mapfiles/ms/icons/red-dot.png;-39.8645388888889;-9.87721166666667;2917706;Jaguarari;BA
"Mineradora: Mineração Caraíba S.a. 
Barragem: PILHA 06 - P6C3";http://maps.google.com/mapfiles/ms/icons/red-dot.png;-39.8723108333333;-9.87825277777778;2917706;Jaguarari;BA
"Mineradora: Mineração Caraíba S.a. 
Barragem: PILHA01-C10";http://maps.google.com/mapfiles/ms/icons/red-dot.png;-39.8660969444444;-9.85260472222222;2917706;Jaguarari;BA
"Mineradora: Mineração Caraíba S.a. 
Barragem: PILHA01-C11";http://maps.google.com/mapfiles/ms/icons/red-dot.png;-39.8636427777778;-9.85349194444444;2917706;Jaguarari;BA
"Mineradora: Mineração Caraíba S.a. 
Barragem: PILHA01-C13";http://maps.google.com/mapfiles/ms/icons/red-dot.png;-39.8649372222222;-9.85637111111111;2917706;Jaguarari;BA
"Mineradora: Mineração Caraíba S.a. 
Barragem: PILHA05-C06";http://maps.google.com/mapfiles/ms/icons/red-dot.png;-39.8632319444444;-9.878395;2917706;Jaguarari;BA
"Mineradora: Mineração Caraíba S.a. 
Barragem: PILHA05-XC03";http://maps.google.com/mapfiles/ms/icons/red-dot.png;-39.8649658333333;-9.87489694444444;2917706;Jaguarari;BA
"Mineradora: Mineração Caraíba S.a. 
Barragem: PILHA07-C1";http://maps.google.com/mapfiles/ms/icons/red-dot.png;-39.8716186111111;-9.87598777777778;2917706;Jaguarari;BA
"Mineradora: Mineração Caraíba S.a. 
Barragem: PILHASUL - PCS1";http://maps.google.com/mapfiles/ms/icons/red-dot.png;-39.8709019444444;-9.87384472222222;2917706;Jaguarari;BA
"Mineradora: Mineração Caraíba S.a. 
Barragem: PILHASUL - PCS2";http://maps.google.com/mapfiles/ms/icons/red-dot.png;-39.8716597222222;-9.87283694444445;2917706;Jaguarari;BA
"Mineradora: Mineração Caraíba S.a. 
Barragem: PILHASUL - PCS3";http://maps.google.com/mapfiles/ms/icons/red-dot.png;-39.8710308333333;-9.87293888888889;2917706;Jaguarari;BA
"Mineradora: Mineração Caraíba S.a. 
Barragem: R22";http://maps.google.com/mapfiles/ms/icons/red-dot.png;-39.8730833333333;-9.86161111111111;2917706;Jaguarari;BA
"Mineradora: Mineração Caraíba S.a. 
Barragem: R75";http://maps.google.com/mapfiles/ms/icons/red-dot.png;-39.8681388888889;-9.85286111111111;2917706;Jaguarari;BA
"Mineradora: Samaca Ferros Ltda 
Barragem: Barragem 01";http://maps.google.com/mapfiles/ms/icons/yellow-dot.png;-40.3224;-15.7773861111111;2920007;Maiquinique;BA
"Mineradora: Samaca Ferros Ltda 
Barragem: Barragem 02";http://maps.google.com/mapfiles/ms/icons/yellow-dot.png;-40.3178611111111;-15.7783888888889;2920007;Maiquinique;BA
"Mineradora: Vanádio de Maracás SA 
Barragem: Barragem de rejeito não magnético 02";http://maps.google.com/mapfiles/ms/icons/yellow-dot.png;-40.6916616666667;-13.6867363888889;2920502;Maracás;BA
"Mineradora: Vanádio de Maracás SA 
Barragem: Barragem de rejeito não magnético 03";http://maps.google.com/mapfiles/ms/icons/yellow-dot.png;-40.6891388888889;-13.68725;2920502;Maracás;BA
"Mineradora: Vanádio de Maracás SA 
Barragem: Barragem de Rejeito Não Magnético 04";http://maps.google.com/mapfiles/ms/icons/yellow-dot.png;-40.6914722222222;-13.6899361111111;2920502;Maracás;BA
"Mineradora: Magnesita Mineração S.A. Filial: FAZENDA PEDRAS PRETAS 
Barragem: BARRAGEM USINA SANTALUZ BENEFICIAMENTO - BII";http://maps.google.com/mapfiles/ms/icons/red-dot.png;-39.3575694444445;-11.260125;2928000;Santaluz;BA
"Mineradora: Magnesita Mineração S.A. Filial: FAZENDA PEDRAS PRETAS 
Barragem: BARRAGEM USINA SANTALUZ BENEFICIAMENTO - BIII";http://maps.google.com/mapfiles/ms/icons/red-dot.png;-39.3575694444445;-11.2606944444444;2928000;Santaluz;BA
"Mineradora: Magnesita Mineração S.A. Filial: FAZENDA PEDRAS PRETAS 
Barragem: BARRAGEM USINA SANTALUZ BENEFICIAMENTO BI";http://maps.google.com/mapfiles/ms/icons/red-dot.png;-39.3575694444445;-11.2602222222222;2928000;Santaluz;BA
"Mineradora: Santa Luz Desenvolvimento Mineral Ltda 
Barragem: BARRAGEM DE FLOTAÇÃO";http://maps.google.com/mapfiles/ms/icons/yellow-dot.png;-39.2870277777778;-11.0034444444444;2928000;Santaluz;BA
"Mineradora: Santa Luz Desenvolvimento Mineral Ltda 
Barragem: BARRAGEM DE LIXIVIAÇÃO";http://maps.google.com/mapfiles/ms/icons/yellow-dot.png;-39.3008333333333;-11.0036388888889;2928000;Santaluz;BA
"Mineradora: Pedreiras Bahia Ltda. 
Barragem: TANQUE DE DECANTAÇÃO";http://maps.google.com/mapfiles/ms/icons/red-dot.png;-38.4044166666667;-12.8567777777778;2930709;Simões Filho;BA
"Mineradora: Companhia Brasileira de Bentonita Ltda 
Barragem: Barragem Santa Helena";http://maps.google.com/mapfiles/ms/icons/red-dot.png;-41.0049769444445;-14.8112147222222;2933307;Vitória da Conquista;BA
"Mineradora: Mineração Maracá Industria e Comercio Sa 
Barragem: Barragem de Rejeitos do Córrego Baco Pari";http://maps.google.com/mapfiles/ms/icons/yellow-dot.png;-49.4062147222222;-14.2058908333333;5200555;Alto Horizonte;GO
"Mineradora: Copebras Indústria Ltda 
Barragem: BARRAGEM DO BURACO";http://maps.google.com/mapfiles/ms/icons/yellow-dot.png;-47.8454166666667;-18.1625;5205109;Catalão;GO
"Mineradora: Mosaic Fertilizantes P&K S.A. Filial: Catalao 
Barragem: Barragem BM";http://maps.google.com/mapfiles/ms/icons/yellow-dot.png;-47.7844722222222;-18.1125833333333;5205109;Catalão;GO
"Mineradora: Mosaic Fertilizantes P&K S.A. Filial: Catalao 
Barragem: Barragem BR";http://maps.google.com/mapfiles/ms/icons/yellow-dot.png;-47.7797666666667;-18.1053138888889;5205109;Catalão;GO
"Mineradora: Quartziti Mineradora Ltda 
Barragem: GIRASSOL-01";http://maps.google.com/mapfiles/ms/icons/red-dot.png;-48.6380555555556;-15.7722222222222;5205802;Corumbá de Goiás;GO
"Mineradora: Mineração Serra Grande S.a. 
Barragem: Barragem MSG";http://maps.google.com/mapfiles/ms/icons/yellow-dot.png;-49.9601958333333;-14.5610897222222;5206404;Crixás;GO
"Mineradora: Catalao 
Barragem: Dique de finos 01 - Depósito Tamanduá";http://maps.google.com/mapfiles/ms/icons/red-dot.png;-47.7819766666667;-18.1508408333333;5215504;Ouvidor;GO
"Mineradora: Catalao 
Barragem: Dique de finos 02 - Depósito Tamanduá";http://maps.google.com/mapfiles/ms/icons/red-dot.png;-47.7830038888889;-18.1519425;5215504;Ouvidor;GO
"Mineradora: Catalao 
Barragem: Dique de finos 03 - Depósito Tamanduá";http://maps.google.com/mapfiles/ms/icons/red-dot.png;-47.7821363888889;-18.1387952777778;5215504;Ouvidor;GO
"Mineradora: Niobras Mineração Ltda 
Barragem: Unidade I";http://maps.google.com/mapfiles/ms/icons/yellow-dot.png;-47.8030555555556;-18.1480555555556;5215504;Ouvidor;GO
"Mineradora: Niobras Mineração Ltda 
Barragem: Unidade IB";http://maps.google.com/mapfiles/ms/icons/yellow-dot.png;-47.8061111111111;-18.1444444444444;5215504;Ouvidor;GO
"Mineradora: Niobras Mineração Ltda 
Barragem: Unidade II";http://maps.google.com/mapfiles/ms/icons/yellow-dot.png;-47.8056669444444;-18.1521369444444;5215504;Ouvidor;GO
"Mineradora: Niobras Mineração Ltda 
Barragem: Unidade IIB";http://maps.google.com/mapfiles/ms/icons/yellow-dot.png;-47.8113888888889;-18.1416666666667;5215504;Ouvidor;GO
"Mineradora: Pilar de Goias Desenvolvimento Mineral S.a. 
Barragem: BARRAGEM DE REJEITOS PGDM";http://maps.google.com/mapfiles/ms/icons/yellow-dot.png;-49.5406111111111;-14.8102222222222;5216908;Pilar de Goiás;GO
"Mineradora: Brasil Minérios S.a. 
Barragem: Barragem Morro Pelado";http://maps.google.com/mapfiles/ms/icons/red-dot.png;-50.3836666666667;-16.3938888888889;5220108;São Luís de Montes Belos;GO
"Mineradora: Brasil Minérios S.a. 
Barragem: Barragem Morro Pelado 2";http://maps.google.com/mapfiles/ms/icons/red-dot.png;-50.3834166666667;-16.3971388888889;5220108;São Luís de Montes Belos;GO
"Mineradora: Cbe Companhia Brasileira de Equipamento Filial: 
Barragem: Area M";http://maps.google.com/mapfiles/ms/icons/red-dot.png;-44.0160277777778;-4.52358333333333;2103307;Codó;MA
"Mineradora: J. G. de A. FERREIRA MINERADORA EIRELI 
Barragem: VÃO DAS COBRAS";http://maps.google.com/mapfiles/ms/icons/red-dot.png;-43.9662222222222;-6.58219444444444;2108009;Pastos Bons;MA
"Mineradora: Anglo American Minério de Ferro Brasil S.a 
Barragem: Barragem de Rejeitos";http://maps.google.com/mapfiles/ms/icons/yellow-dot.png;-43.4081111111111;-18.8652222222222;3102407;Alvorada de Minas;MG
"Mineradora: Mineração Marsil Ltda. 
Barragem: Barragem B1";http://maps.google.com/mapfiles/ms/icons/red-dot.png;-43.02225;-19.5499722222222;3103009;Antônio Dias;MG
"Mineradora: Mineração Marsil Ltda. 
Barragem: Barragem B3";http://maps.google.com/mapfiles/ms/icons/red-dot.png;-43.0215277777778;-19.5475833333333;3103009;Antônio Dias;MG
"Mineradora: Niki Mineração Comércio e Exportação Ltda 
Barragem: SANTO ANTÔNIO";http://maps.google.com/mapfiles/ms/icons/red-dot.png;-43.0309361111111;-19.5454583333333;3103009;Antônio Dias;MG
"Mineradora: Araxa 
Barragem: Barragem B6";http://maps.google.com/mapfiles/ms/icons/yellow-dot.png;-47.0128477777778;-19.6110058333333;3104007;Araxá;MG
"Mineradora: Araxa 
Barragem: Dique dos Borges";http://maps.google.com/mapfiles/ms/icons/red-dot.png;-46.9561977777778;-19.6533269444444;3104007;Araxá;MG
"Mineradora: Araxa 
Barragem: Dique dos Búfalos";http://maps.google.com/mapfiles/ms/icons/red-dot.png;-46.9719988888889;-19.6734277777778;3104007;Araxá;MG
"Mineradora: COMPANHIA MINERADORA DO PIROCLORO DE ARAXA 
Barragem: Barragem 1";http://maps.google.com/mapfiles/ms/icons/red-dot.png;-46.9270219444444;-19.6597558333333;3104007;Araxá;MG
"Mineradora: Mosaic Fertilizantes P&K S.A. Filial: Araxa 
Barragem: Barragem A";http://maps.google.com/mapfiles/ms/icons/yellow-dot.png;-46.9461111111111;-19.6497222222222;3104007;Araxá;MG
"Mineradora: Mosaic Fertilizantes P&K S.A. Filial: Araxa 
Barragem: Barragem A0";http://maps.google.com/mapfiles/ms/icons/yellow-dot.png;-47.0293658333333;-19.610835;3104007;Araxá;MG
"Mineradora: Mosaic Fertilizantes P&K S.A. Filial: Araxa 
Barragem: Barragem B1/B4";http://maps.google.com/mapfiles/ms/icons/yellow-dot.png;-46.9963888888889;-19.6336111111111;3104007;Araxá;MG
"Mineradora: Mosaic Fertilizantes P&K S.A. Filial: Araxa 
Barragem: Barragem B2";http://maps.google.com/mapfiles/ms/icons/yellow-dot.png;-46.9738497222222;-19.6413527777778;3104007;Araxá;MG
"Mineradora: Mosaic Fertilizantes P&K S.A. Filial: Araxa 
Barragem: Barragem B5";http://maps.google.com/mapfiles/ms/icons/yellow-dot.png;-47.0211111111111;-19.6169444444444;3104007;Araxá;MG
"Mineradora: Mosaic Fertilizantes P&K S.A. Filial: Araxa 
Barragem: Barragem E";http://maps.google.com/mapfiles/ms/icons/yellow-dot.png;-46.9523219444444;-19.6502038888889;3104007;Araxá;MG
"Mineradora: Mosaic Fertilizantes P&K S.A. Filial: Araxa 
Barragem: Barragem F";http://maps.google.com/mapfiles/ms/icons/yellow-dot.png;-46.9530555555556;-19.6541666666667;3104007;Araxá;MG
"Mineradora: Companhia Siderúrgica Nacional 
Barragem: Barragem 02";http://maps.google.com/mapfiles/ms/icons/yellow-dot.png;-45.5831611111111;-20.3165611111111;3104205;Arcos;MG
"Mineradora: Companhia Siderúrgica Nacional 
Barragem: Barragem 03";http://maps.google.com/mapfiles/ms/icons/yellow-dot.png;-45.5774555555556;-20.3134388888889;3104205;Arcos;MG
"Mineradora: Vale Minas Centrais 
Barragem: Barragem Torto";http://maps.google.com/mapfiles/ms/icons/red-dot.png;-43.4137694444444;-19.8513472222222;3105400;Barão de Cocais;MG
"Mineradora: Vale S A Filial: Vale Minas Centrais 
Barragem: 2";http://maps.google.com/mapfiles/ms/icons/red-dot.png;-43.6037275;-19.9735002777778;3105400;Barão de Cocais;MG
"Mineradora: Vale S A Filial: Vale Minas Centrais 
Barragem: A - PDE Nordeste";http://maps.google.com/mapfiles/ms/icons/red-dot.png;-43.5866997222222;-19.9487280555556;3105400;Barão de Cocais;MG
"Mineradora: Vale S A Filial: Vale Minas Centrais 
Barragem: B - PDE Nordeste";http://maps.google.com/mapfiles/ms/icons/red-dot.png;-43.5835311111111;-19.9472572222222;3105400;Barão de Cocais;MG
"Mineradora: Vale S A Filial: Vale Minas Centrais 
Barragem: C - PDE Nordeste";http://maps.google.com/mapfiles/ms/icons/red-dot.png;-43.5838102777778;-19.9384508333333;3105400;Barão de Cocais;MG
"Mineradora: Vale S A Filial: Vale Minas Centrais 
Barragem: Fazendinha";http://maps.google.com/mapfiles/ms/icons/red-dot.png;-43.6080622222222;-19.9717275;3105400;Barão de Cocais;MG
"Mineradora: Vale S A Filial: Vale Minas Centrais 
Barragem: Ingleses";http://maps.google.com/mapfiles/ms/icons/red-dot.png;-43.5872777777778;-19.9653611111111;3105400;Barão de Cocais;MG
"Mineradora: Vale S A Filial: Vale Minas Centrais 
Barragem: Norte/Laranjeiras";http://maps.google.com/mapfiles/ms/icons/yellow-dot.png;-43.4217205555556;-19.8483422222222;3105400;Barão de Cocais;MG
"Mineradora: Vale S A Filial: Vale Minas Centrais 
Barragem: Patrimônio";http://maps.google.com/mapfiles/ms/icons/red-dot.png;-43.5872252777778;-19.9594472222222;3105400;Barão de Cocais;MG
"Mineradora: Vale S A Filial: Vale Minas Centrais 
Barragem: Sul Inferior";http://maps.google.com/mapfiles/ms/icons/yellow-dot.png;-43.6006975;-19.9757261111111;3105400;Barão de Cocais;MG
"Mineradora: Vale S A Filial: Vale Minas Centrais 
Barragem: Sul Superior";http://maps.google.com/mapfiles/ms/icons/yellow-dot.png;-43.5968669444445;-19.9701755555556;3105400;Barão de Cocais;MG
"Mineradora: Lafargeholcim (brasil) S.a. Filial: Barroso 
Barragem: Dique de Contenção Pilha de Estéril MMR";http://maps.google.com/mapfiles/ms/icons/red-dot.png;-43.99125;-21.1910555555556;3105905;Barroso;MG
"Mineradora: ARCELORMITTAL BRASIL S A 
Barragem: Bacia 07";http://maps.google.com/mapfiles/ms/icons/red-dot.png;-43.1831111111111;-19.7831111111111;3106002;Bela Vista de Minas;MG
"Mineradora: ARCELORMITTAL BRASIL S A 
Barragem: Bacia 08";http://maps.google.com/mapfiles/ms/icons/red-dot.png;-43.1801666666667;-19.7849722222222;3106002;Bela Vista de Minas;MG
"Mineradora: ARCELORMITTAL BRASIL S A 
Barragem: Bacia 09";http://maps.google.com/mapfiles/ms/icons/red-dot.png;-43.189425;-19.7771777777778;3106002;Bela Vista de Minas;MG
"Mineradora: ARCELORMITTAL BRASIL S A 
Barragem: Bacia 16";http://maps.google.com/mapfiles/ms/icons/red-dot.png;-43.1727969444444;-19.7860977777778;3106002;Bela Vista de Minas;MG
"Mineradora: ARCELORMITTAL BRASIL S A 
Barragem: Bacia 17";http://maps.google.com/mapfiles/ms/icons/red-dot.png;-43.1652127777778;-19.7838269444444;3106002;Bela Vista de Minas;MG
"Mineradora: Vale S A Filial: Vale Itabiritos 
Barragem: Marés I";http://maps.google.com/mapfiles/ms/icons/yellow-dot.png;-43.9278611111111;-20.4252777777778;3106408;Belo Vale;MG
"Mineradora: Vale S A Filial: Vale Itabiritos 
Barragem: Marés II";http://maps.google.com/mapfiles/ms/icons/yellow-dot.png;-43.9315555555556;-20.4339444444444;3106408;Belo Vale;MG
"Mineradora: Brasmic Mineração Areia e Brita Ltda 
Barragem: DIQUE D";http://maps.google.com/mapfiles/ms/icons/yellow-dot.png;-44.1214722222222;-19.9855555555556;3106705;Betim;MG
"Mineradora: Emicon Mineração e Terraplenagem LTDA. 
Barragem: Barragem B1A Ipê";http://maps.google.com/mapfiles/ms/icons/yellow-dot.png;-44.3125833333333;-20.1229722222222;3109006;Brumadinho;MG
"Mineradora: Emicon Mineração e Terraplenagem LTDA. 
Barragem: Dique B3 Ipê";http://maps.google.com/mapfiles/ms/icons/yellow-dot.png;-44.3159444444444;-20.1193611111111;3109006;Brumadinho;MG
"Mineradora: Emicon Mineração e Terraplenagem LTDA. 
Barragem: Dique B4 Ipê";http://maps.google.com/mapfiles/ms/icons/yellow-dot.png;-44.3171944444444;-20.1175833333333;3109006;Brumadinho;MG
"Mineradora: Empresa de Mineração Esperança Sa 
Barragem: BARRAGEM DE GABIÕES";http://maps.google.com/mapfiles/ms/icons/red-dot.png;-44.2183611111111;-20.1156944444444;3109006;Brumadinho;MG
"Mineradora: Empresa de Mineração Esperança Sa 
Barragem: DIQUE DE SAÍDA DE CAVA";http://maps.google.com/mapfiles/ms/icons/red-dot.png;-44.2201944444444;-20.1120277777778;3109006;Brumadinho;MG
"Mineradora: Empresa de Mineração Esperança Sa 
Barragem: SUMP DE CONTENÇÃO DE SEDIMENTOS";http://maps.google.com/mapfiles/ms/icons/red-dot.png;-44.2240833333333;-20.1109166666667;3109006;Brumadinho;MG
"Mineradora: Ferrous Resources do Brasil Sa 
Barragem: BARRAGEM SERRINHA";http://maps.google.com/mapfiles/ms/icons/yellow-dot.png;-43976;-20.1746666666667;3109006;Brumadinho;MG
"Mineradora: Mib Mineração Ibirité Ltda 
Barragem: Dique - Pilha 2";http://maps.google.com/mapfiles/ms/icons/red-dot.png;-44.1025638888889;-20.1298694444444;3109006;Brumadinho;MG
"Mineradora: Mib Mineração Ibirité Ltda 
Barragem: Dique - Pilha 4";http://maps.google.com/mapfiles/ms/icons/red-dot.png;-44.1064697222222;-20.1230880555556;3109006;Brumadinho;MG
"Mineradora: MINERAÇÃO COMISA LTDA. 
Barragem: Dique 01";http://maps.google.com/mapfiles/ms/icons/yellow-dot.png;-44.3198472222222;-20.1182916666667;3109006;Brumadinho;MG
"Mineradora: MINERAÇÃO COMISA LTDA. 
Barragem: Dique 02";http://maps.google.com/mapfiles/ms/icons/yellow-dot.png;-44.3228333333333;-20.1209555555556;3109006;Brumadinho;MG
"Mineradora: MINERAÇÃO COMISA LTDA. 
Barragem: Dique 03";http://maps.google.com/mapfiles/ms/icons/red-dot.png;-44.3194083333333;-20.1217277777778;3109006;Brumadinho;MG
"Mineradora: MINERAÇÃO COMISA LTDA. 
Barragem: Dique 04";http://maps.google.com/mapfiles/ms/icons/red-dot.png;-44.3241555555555;-20.1194055555556;3109006;Brumadinho;MG
"Mineradora: MINERAÇÃO COMISA LTDA. 
Barragem: Dique Quéias - Captação de Água";http://maps.google.com/mapfiles/ms/icons/red-dot.png;-44.3161388888889;-20.1266944444444;3109006;Brumadinho;MG
"Mineradora: Mineração Geral do Brasil S A 
Barragem: Barragem B1";http://maps.google.com/mapfiles/ms/icons/yellow-dot.png;-44.0292222222222;-20.0648055555556;3109006;Brumadinho;MG
"Mineradora: Mineração Geral do Brasil S A 
Barragem: Barragem B2";http://maps.google.com/mapfiles/ms/icons/yellow-dot.png;-44.0271944444444;-20.0663055555556;3109006;Brumadinho;MG
"Mineradora: Mineração Geral do Brasil S A 
Barragem: Barragem B3";http://maps.google.com/mapfiles/ms/icons/red-dot.png;-44.0230277777778;-20.0674444444444;3109006;Brumadinho;MG
"Mineradora: Mineração Geral do Brasil S A 
Barragem: Dique IV";http://maps.google.com/mapfiles/ms/icons/red-dot.png;-44.0215538888889;-20.0711058333333;3109006;Brumadinho;MG
"Mineradora: Mineração Morro do Ipê S.a. 
Barragem: Barragem B1 - Mina Ipê";http://maps.google.com/mapfiles/ms/icons/yellow-dot.png;-44.3074722222222;-20.1198055555556;3109006;Brumadinho;MG
"Mineradora: Mineração Morro do Ipê S.a. 
Barragem: Dique Conquistinha";http://maps.google.com/mapfiles/ms/icons/red-dot.png;-44.2981027777778;-20.1159;3109006;Brumadinho;MG
"Mineradora: Minerações Brasileiras Reunidas Sa Filial: MBR Paraopeba 
Barragem: Capim Branco";http://maps.google.com/mapfiles/ms/icons/yellow-dot.png;-44.0736677777778;-20.1082727777778;3109006;Brumadinho;MG
"Mineradora: Vale S A Filial: Vale Paraopeba 
Barragem: Menezes I";http://maps.google.com/mapfiles/ms/icons/yellow-dot.png;-44.1392222222222;-20.1196388888889;3109006;Brumadinho;MG
"Mineradora: Vale S A Filial: Vale Paraopeba 
Barragem: Menezes II";http://maps.google.com/mapfiles/ms/icons/yellow-dot.png;-44.1382777777778;-20.1280833333333;3109006;Brumadinho;MG
"Mineradora: Vale S A Filial: Vale Paraopeba 
Barragem: VI";http://maps.google.com/mapfiles/ms/icons/yellow-dot.png;-44.1244166666667;-20.1190555555556;3109006;Brumadinho;MG
"Mineradora: Vale S A Filial: Vale Paraopeba 
Barragem: VII";http://maps.google.com/mapfiles/ms/icons/yellow-dot.png;-44.1196666666667;-20.1042777777778;3109006;Brumadinho;MG
"Mineradora: Vallourec Tubos do Brasil Ltda. 
Barragem: Santa Bárbara";http://maps.google.com/mapfiles/ms/icons/yellow-dot.png;-44.0062222222222;-20.1618611111111;3109006;Brumadinho;MG
"Mineradora: Mineração Serras do Oeste Eireli 
Barragem: Barragem RG2W";http://maps.google.com/mapfiles/ms/icons/yellow-dot.png;-43.6348088888889;-19.9582527777778;3110004;Caeté;MG
"Mineradora: Mineração Serras do Oeste Eireli 
Barragem: Moita";http://maps.google.com/mapfiles/ms/icons/yellow-dot.png;-43.6490558333333;-19.9349258333333;3110004;Caeté;MG
"Mineradora: Cimento Tupi S.a. 
Barragem: BARRAGEM B1";http://maps.google.com/mapfiles/ms/icons/red-dot.png;-43.8038888888889;-20.9033888888889;3113107;Caranaíba;MG
"Mineradora: Pedreira Um Valemix Ltda. 
Barragem: Dique de Captação";http://maps.google.com/mapfiles/ms/icons/red-dot.png;-43.4241388888889;-20.027475;3115359;Catas Altas;MG
"Mineradora: Vale Mariana 
Barragem: Dique IV";http://maps.google.com/mapfiles/ms/icons/yellow-dot.png;-43.4158333333333;-20.0908333333333;3115359;Catas Altas;MG
"Mineradora: Vale Mariana 
Barragem: Dique V";http://maps.google.com/mapfiles/ms/icons/yellow-dot.png;-43.4161111111111;-20.0916666666667;3115359;Catas Altas;MG
"Mineradora: Vale Mariana 
Barragem: Dique VI";http://maps.google.com/mapfiles/ms/icons/yellow-dot.png;-43.4162338888889;-20.0946027777778;3115359;Catas Altas;MG
"Mineradora: Vale Mariana 
Barragem: Dique VI-A";http://maps.google.com/mapfiles/ms/icons/yellow-dot.png;-43.4162847222222;-20.0940788888889;3115359;Catas Altas;MG
"Mineradora: Vale Mariana 
Barragem: Dique VII";http://maps.google.com/mapfiles/ms/icons/yellow-dot.png;-43.4141666666667;-20.0980555555556;3115359;Catas Altas;MG
"Mineradora: Vale S A Filial: Vale Mariana 
Barragem: Mosquito";http://maps.google.com/mapfiles/ms/icons/yellow-dot.png;-43.4041822222222;-20.1054744444444;3115359;Catas Altas;MG
"Mineradora: Vale S A Filial: Vale Mariana 
Barragem: Paracatu";http://maps.google.com/mapfiles/ms/icons/yellow-dot.png;-43.4145716666667;-20.1183963888889;3115359;Catas Altas;MG
"Mineradora: Anglo American Minério de Ferro Brasil S.a 
Barragem: Dique de Contenção de Sedimentos 01";http://maps.google.com/mapfiles/ms/icons/yellow-dot.png;-43.4083333333333;-18.8991666666667;3117504;Conceição do Mato Dentro;MG
"Mineradora: Anglo American Minério de Ferro Brasil S.a 
Barragem: Dique de Contenção de Sedimentos 02";http://maps.google.com/mapfiles/ms/icons/yellow-dot.png;-43.4052777777778;-18.8897222222222;3117504;Conceição do Mato Dentro;MG
"Mineradora: Anglo American Minério de Ferro Brasil S.a 
Barragem: Dique de Contenção de Sedimentos 03";http://maps.google.com/mapfiles/ms/icons/yellow-dot.png;-43.4065730555556;-18.9208288888889;3117504;Conceição do Mato Dentro;MG
"Mineradora: Anglo American Minério de Ferro Brasil S.a 
Barragem: Dique de Contenção de Sedimentos 04";http://maps.google.com/mapfiles/ms/icons/yellow-dot.png;-43.4016666666667;-18.9316666666667;3117504;Conceição do Mato Dentro;MG
"Mineradora: Mineração Turmalina Ltda 
Barragem: Turmalina";http://maps.google.com/mapfiles/ms/icons/yellow-dot.png;-44.8744166666667;-19.7460555555556;3117603;Conceição do Pará;MG
"Mineradora: Csn Mineração S.a. 
Barragem: BARRAGEM B4";http://maps.google.com/mapfiles/ms/icons/yellow-dot.png;-43.8858333333333;-20.4858333333333;3118007;Congonhas;MG
"Mineradora: Csn Mineração S.a. 
Barragem: BARRAGEM B5";http://maps.google.com/mapfiles/ms/icons/yellow-dot.png;-43.8911111111111;-20.4897222222222;3118007;Congonhas;MG
"Mineradora: Csn Mineração S.a. 
Barragem: BARRAGEM CASA DE PEDRA";http://maps.google.com/mapfiles/ms/icons/yellow-dot.png;-43.8833333333333;-20.5058333333333;3118007;Congonhas;MG
"Mineradora: Csn Mineração S.a. 
Barragem: BARRAGEM DO LAGARTO";http://maps.google.com/mapfiles/ms/icons/red-dot.png;-43.9065658333333;-20.4516519444444;3118007;Congonhas;MG
"Mineradora: Csn Mineração S.a. 
Barragem: BARRAGEM POÇO FUNDO";http://maps.google.com/mapfiles/ms/icons/red-dot.png;-43.8984608333333;-20.4514319444444;3118007;Congonhas;MG
"Mineradora: Csn Mineração S.a. 
Barragem: DIQUE DA PILHA DA VILA II";http://maps.google.com/mapfiles/ms/icons/yellow-dot.png;-43.8997222222222;-20.4522222222222;3118007;Congonhas;MG
"Mineradora: Csn Mineração S.a. 
Barragem: DIQUE DO BICHENTO IIIA";http://maps.google.com/mapfiles/ms/icons/yellow-dot.png;-43.9333333333333;-20485;3118007;Congonhas;MG
"Mineradora: Csn Mineração S.a. 
Barragem: DIQUE DO ENGENHO";http://maps.google.com/mapfiles/ms/icons/yellow-dot.png;-43.8944722222222;-20.4564722222222;3118007;Congonhas;MG
"Mineradora: Csn Mineração S.a. 
Barragem: DIQUE DO ESMERIL IV";http://maps.google.com/mapfiles/ms/icons/yellow-dot.png;-43955;-20.4852777777778;3118007;Congonhas;MG
"Mineradora: Ferro + Mineração S.A. 
Barragem: Dique de Sedimentos da PDE Cava Sul";http://maps.google.com/mapfiles/ms/icons/red-dot.png;-43.8717916666667;-20.4365083333333;3118007;Congonhas;MG
"Mineradora: Ferrous Resources do Brasil Sa 
Barragem: CONJUNTO DE BAIAS VIGA";http://maps.google.com/mapfiles/ms/icons/red-dot.png;-43.9176666666667;-20.4960277777778;3118007;Congonhas;MG
"Mineradora: Vale S A Filial: Vale Itabiritos 
Barragem: Alto Jacutinga";http://maps.google.com/mapfiles/ms/icons/red-dot.png;-43.8859722222222;-20426;3118007;Congonhas;MG
"Mineradora: Vale S A Filial: Vale Itabiritos 
Barragem: Baixo João Pereira";http://maps.google.com/mapfiles/ms/icons/yellow-dot.png;-43.9051388888889;-20.4401388888889;3118007;Congonhas;MG
"Mineradora: Vale S A Filial: Vale Itabiritos 
Barragem: Barnabé";http://maps.google.com/mapfiles/ms/icons/yellow-dot.png;-43.8917777777778;-20.4258333333333;3118007;Congonhas;MG
"Mineradora: Vale S A Filial: Vale Itabiritos 
Barragem: Barnabé 1";http://maps.google.com/mapfiles/ms/icons/yellow-dot.png;-43.8823333333333;-20.4340277777778;3118007;Congonhas;MG
"Mineradora: Vale S A Filial: Vale Itabiritos 
Barragem: Gambá";http://maps.google.com/mapfiles/ms/icons/red-dot.png;-43.8828611111111;-20.4313333333333;3118007;Congonhas;MG
"Mineradora: Construtora Martins Lanna Ltda. 
Barragem: Barragem 1 - Dique de Contenção";http://maps.google.com/mapfiles/ms/icons/red-dot.png;-44.0930844444445;-19.8649361111111;3118601;Contagem;MG
"Mineradora: Construtora Martins Lanna Ltda. 
Barragem: Barragem 2 - Captação de Água";http://maps.google.com/mapfiles/ms/icons/red-dot.png;-44.1004916666667;-19.8759555555556;3118601;Contagem;MG
"Mineradora: Novelis do Brasil Ltda 
Barragem: SANTA TERESA";http://maps.google.com/mapfiles/ms/icons/red-dot.png;-42.8859722222222;-21.4671944444444;3121308;Descoberto;MG
"Mineradora: Mineração Sanguinete Ltda 
Barragem: SANGUINETE";http://maps.google.com/mapfiles/ms/icons/red-dot.png;-43.7689166666667;-18.0090555555556;3121605;Diamantina;MG
"Mineradora: Extrativa Metalurgia S A 
Barragem: BARRAGEM REJEITOS";http://maps.google.com/mapfiles/ms/icons/yellow-dot.png;-46.7052777777778;-20.8928611111111;3126307;Fortaleza de Minas;MG
"Mineradora: Minerações Gerais Ltda 
Barragem: GERAIS";http://maps.google.com/mapfiles/ms/icons/red-dot.png;-44.4114166666667;-19.5824444444444;3126406;Fortuna de Minas;MG
"Mineradora: Mineração Morro do Ipê S.a. 
Barragem: Barragem B1-Auxiliar - Mina Tico-Tico";http://maps.google.com/mapfiles/ms/icons/yellow-dot.png;-44.2881944444444;-20.1035277777778;3130101;Igarapé;MG
"Mineradora: Mineração Morro do Ipê S.a. 
Barragem: Barragem B2 - Mina Tico-Tico";http://maps.google.com/mapfiles/ms/icons/yellow-dot.png;-44.2866722222222;-20.1104305555556;3130101;Igarapé;MG
"Mineradora: Minerações Gerais Ltda 
Barragem: Gerais II";http://maps.google.com/mapfiles/ms/icons/red-dot.png;-44.4099305555556;-19.5825972222222;3131000;Inhaúma;MG
"Mineradora: ARCELORMITTAL BRASIL S A 
Barragem: Bacia 01";http://maps.google.com/mapfiles/ms/icons/red-dot.png;-43.1920277777778;-19.7847222222222;3131703;Itabira;MG
"Mineradora: ARCELORMITTAL BRASIL S A 
Barragem: Bacia 15";http://maps.google.com/mapfiles/ms/icons/red-dot.png;-43.1910477777778;-19.7763147222222;3131703;Itabira;MG
"Mineradora: Piteiras Mineração Ltda. 
Barragem: Piteiras";http://maps.google.com/mapfiles/ms/icons/red-dot.png;-43.1128611111111;-19.6923611111111;3131703;Itabira;MG
"Mineradora: Vale S A Filial: Vale Itabira 
Barragem: Alcindo Vieira";http://maps.google.com/mapfiles/ms/icons/yellow-dot.png;-43.2462855555556;-19.5745088888889;3131703;Itabira;MG
"Mineradora: Vale S A Filial: Vale Itabira 
Barragem: Borrachudo";http://maps.google.com/mapfiles/ms/icons/yellow-dot.png;-43.2633825;-19.60931;3131703;Itabira;MG
"Mineradora: Vale S A Filial: Vale Itabira 
Barragem: Borrachudo II";http://maps.google.com/mapfiles/ms/icons/yellow-dot.png;-43.26678;-19.6125047222222;3131703;Itabira;MG
"Mineradora: Vale S A Filial: Vale Itabira 
Barragem: Cambucal I";http://maps.google.com/mapfiles/ms/icons/yellow-dot.png;-43.2414777777778;-19.6406433333333;3131703;Itabira;MG
"Mineradora: Vale S A Filial: Vale Itabira 
Barragem: Cambucal II";http://maps.google.com/mapfiles/ms/icons/yellow-dot.png;-43.242225;-19.6455922222222;3131703;Itabira;MG
"Mineradora: Vale S A Filial: Vale Itabira 
Barragem: Cemig I";http://maps.google.com/mapfiles/ms/icons/yellow-dot.png;-43.2047569444444;-19.5756180555556;3131703;Itabira;MG
"Mineradora: Vale S A Filial: Vale Itabira 
Barragem: Cemig II";http://maps.google.com/mapfiles/ms/icons/yellow-dot.png;-43.1975363888889;-19.5727002777778;3131703;Itabira;MG
"Mineradora: Vale S A Filial: Vale Itabira 
Barragem: Conceição";http://maps.google.com/mapfiles/ms/icons/yellow-dot.png;-43.2741388888889;-19.6475833333333;3131703;Itabira;MG
"Mineradora: Vale S A Filial: Vale Itabira 
Barragem: Ipoema";http://maps.google.com/mapfiles/ms/icons/red-dot.png;-43.2558102777778;-19.6122272222222;3131703;Itabira;MG
"Mineradora: Vale S A Filial: Vale Itabira 
Barragem: Itabiruçu";http://maps.google.com/mapfiles/ms/icons/yellow-dot.png;-43.2862222222222;-19.6853611111111;3131703;Itabira;MG
"Mineradora: Vale S A Filial: Vale Itabira 
Barragem: Jirau";http://maps.google.com/mapfiles/ms/icons/yellow-dot.png;-43.2315566666667;-19.5704805555556;3131703;Itabira;MG
"Mineradora: Vale S A Filial: Vale Itabira 
Barragem: Piabas";http://maps.google.com/mapfiles/ms/icons/yellow-dot.png;-43.2062827777778;-19.5634738888889;3131703;Itabira;MG
"Mineradora: Vale S A Filial: Vale Itabira 
Barragem: Pontal";http://maps.google.com/mapfiles/ms/icons/yellow-dot.png;-43.1829436111111;-19.6254633333333;3131703;Itabira;MG
"Mineradora: Vale S A Filial: Vale Itabira 
Barragem: Quinzinho";http://maps.google.com/mapfiles/ms/icons/yellow-dot.png;-43.257255;-19.6073358333333;3131703;Itabira;MG
"Mineradora: Vale S A Filial: Vale Itabira 
Barragem: Rio do Peixe";http://maps.google.com/mapfiles/ms/icons/yellow-dot.png;-43.2364166666667;-19.6742222222222;3131703;Itabira;MG
"Mineradora: Vale S A Filial: Vale Itabira 
Barragem: Santana";http://maps.google.com/mapfiles/ms/icons/yellow-dot.png;-43.1608625;-19.5550941666667;3131703;Itabira;MG
"Mineradora: Gerdau Açominas S.a. 
Barragem: Bacia de Conteção de Finos da PDE-A Norte";http://maps.google.com/mapfiles/ms/icons/red-dot.png;-43.9308611111111;-20.2783888888889;3131901;Itabirito;MG
"Mineradora: Gerdau Açominas S.a. 
Barragem: Bacia de Conteção de Finos da PDE-A Sul";http://maps.google.com/mapfiles/ms/icons/red-dot.png;-43.9272777777778;-20283;3131901;Itabirito;MG
"Mineradora: Gerdau Açominas S.a. 
Barragem: Bacia Lavador de Rodas";http://maps.google.com/mapfiles/ms/icons/red-dot.png;-43.9386277777778;-20.2929083333333;3131901;Itabirito;MG
"Mineradora: Gerdau Açominas S.a. 
Barragem: Dique Norte da PDE 1";http://maps.google.com/mapfiles/ms/icons/yellow-dot.png;-43.923025;-20.3018694444444;3131901;Itabirito;MG
"Mineradora: Herculano Mineração Ltda. 
Barragem: Barragem B1";http://maps.google.com/mapfiles/ms/icons/yellow-dot.png;-43.9324916666667;-20.2504833333333;3131901;Itabirito;MG
"Mineradora: Herculano Mineração Ltda. 
Barragem: Barragem B2";http://maps.google.com/mapfiles/ms/icons/red-dot.png;-43.9372333333333;-20.2511916666667;3131901;Itabirito;MG
"Mineradora: Herculano Mineração Ltda. 
Barragem: Barragem B3";http://maps.google.com/mapfiles/ms/icons/red-dot.png;-43.9354583333333;-20.2499222222222;3131901;Itabirito;MG
"Mineradora: Herculano Mineração Ltda. 
Barragem: Barragem B4";http://maps.google.com/mapfiles/ms/icons/yellow-dot.png;-43.926775;-20.2604388888889;3131901;Itabirito;MG
"Mineradora: Minar Mineração Aredes Ltda. 
Barragem: BARRAGEM DIQUE 2";http://maps.google.com/mapfiles/ms/icons/yellow-dot.png;-43.8984877777778;-20.2859738888889;3131901;Itabirito;MG
"Mineradora: Minar Mineração Aredes Ltda. 
Barragem: BARRAGEM MINAR";http://maps.google.com/mapfiles/ms/icons/yellow-dot.png;-43.8995861111111;-20.2817222222222;3131901;Itabirito;MG
"Mineradora: Mineração Serras do Oeste Eireli 
Barragem: Barragem Paciência";http://maps.google.com/mapfiles/ms/icons/yellow-dot.png;-43.6857777777778;-20.2104547222222;3131901;Itabirito;MG
"Mineradora: MSM Mineração Serra da Moeda Ltda. 
Barragem: Barragem 1 - Decantação";http://maps.google.com/mapfiles/ms/icons/yellow-dot.png;-43.9167833333333;-20.3794694444444;3131901;Itabirito;MG
"Mineradora: MSM Mineração Serra da Moeda Ltda. 
Barragem: Barragem 2 - Decantação";http://maps.google.com/mapfiles/ms/icons/yellow-dot.png;-43.9167027777778;-20.3788527777778;3131901;Itabirito;MG
"Mineradora: MSM Mineração Serra da Moeda Ltda. 
Barragem: Barragem 3A - Sedimentação";http://maps.google.com/mapfiles/ms/icons/red-dot.png;-43.9146972222222;-20.377275;3131901;Itabirito;MG
"Mineradora: MSM Mineração Serra da Moeda Ltda. 
Barragem: Barragem 3B - Sedimentação";http://maps.google.com/mapfiles/ms/icons/red-dot.png;-43.9154277777778;-20.3780888888889;3131901;Itabirito;MG
"Mineradora: MSM Mineração Serra da Moeda Ltda. 
Barragem: Barragem 4 - Acumulação";http://maps.google.com/mapfiles/ms/icons/red-dot.png;-43.9150944444444;-20.3777027777778;3131901;Itabirito;MG
"Mineradora: MSM Mineração Serra da Moeda Ltda. 
Barragem: Barragem 5 - Captação";http://maps.google.com/mapfiles/ms/icons/red-dot.png;-43.9214833333333;-20.3739138888889;3131901;Itabirito;MG
"Mineradora: MSM Mineração Serra da Moeda Ltda. 
Barragem: Barragem 6 - Dique Filtrante";http://maps.google.com/mapfiles/ms/icons/red-dot.png;-43.9126888888889;-20.3771861111111;3131901;Itabirito;MG
"Mineradora: MSM Mineração Serra da Moeda Ltda. 
Barragem: barragem 7 - Dique Filtrante";http://maps.google.com/mapfiles/ms/icons/red-dot.png;-43.9169027777778;-20.3794277777778;3131901;Itabirito;MG
"Mineradora: MSM Mineração Serra da Moeda Ltda. 
Barragem: Barragem 8 - Dique Filtrante";http://maps.google.com/mapfiles/ms/icons/red-dot.png;-43.9175083333333;-20.3806666666667;3131901;Itabirito;MG
"Mineradora: MSM Mineração Serra da Moeda Ltda. 
Barragem: Barragem 9 - Dique Filtrante";http://maps.google.com/mapfiles/ms/icons/red-dot.png;-43.9192583333333;-20.3807111111111;3131901;Itabirito;MG
"Mineradora: Safm Mineração Ltda 
Barragem: Barragem Central";http://maps.google.com/mapfiles/ms/icons/yellow-dot.png;-43.8951708333333;-20.2728758333333;3131901;Itabirito;MG
"Mineradora: Safm Mineração Ltda 
Barragem: Barragem da Grota";http://maps.google.com/mapfiles/ms/icons/yellow-dot.png;-43.8932777777778;-20.26875;3131901;Itabirito;MG
"Mineradora: Safm Mineração Ltda 
Barragem: Barragem de Aredes";http://maps.google.com/mapfiles/ms/icons/yellow-dot.png;-43.8982222222222;-20.2757777777778;3131901;Itabirito;MG
"Mineradora: Safm Mineração Ltda 
Barragem: Dique Longitudinal";http://maps.google.com/mapfiles/ms/icons/red-dot.png;-43.9001269444444;-20.273525;3131901;Itabirito;MG
"Mineradora: Vale Itabiritos 
Barragem: Cianita 3";http://maps.google.com/mapfiles/ms/icons/yellow-dot.png;-43.8817463888889;-20.2112913888889;3131901;Itabirito;MG
"Mineradora: Vale Itabiritos 
Barragem: Maravilhas III";http://maps.google.com/mapfiles/ms/icons/red-dot.png;-43.9083561111111;-20.22086;3131901;Itabirito;MG
"Mineradora: Vale S A Filial: Vale Itabiritos 
Barragem: Cata Branca";http://maps.google.com/mapfiles/ms/icons/red-dot.png;-43.85675;-20.2331111111111;3131901;Itabirito;MG
"Mineradora: Vale S A Filial: Vale Itabiritos 
Barragem: Maravilhas I";http://maps.google.com/mapfiles/ms/icons/yellow-dot.png;-43.8732222222222;-20.2249166666667;3131901;Itabirito;MG
"Mineradora: Vale S A Filial: Vale Itabiritos 
Barragem: Maravilhas II";http://maps.google.com/mapfiles/ms/icons/yellow-dot.png;-43.8916944444444;-20.2144166666667;3131901;Itabirito;MG
"Mineradora: Vale S A Filial: Vale Itabiritos 
Barragem: Mata Porcos";http://maps.google.com/mapfiles/ms/icons/red-dot.png;-43.8575;-20.3860555555556;3131901;Itabirito;MG
"Mineradora: Companhia Brasileira de Alumínio 
Barragem: Itamarati de Minas";http://maps.google.com/mapfiles/ms/icons/yellow-dot.png;-42.8716588888889;-21.4552247222222;3132602;Itamarati de Minas;MG
"Mineradora: Nacional de Grafite Ltda 
Barragem: B1";http://maps.google.com/mapfiles/ms/icons/yellow-dot.png;-45.1335277777778;-20.4442222222222;3133501;Itapecerica;MG
"Mineradora: Nacional de Grafite Ltda 
Barragem: B2";http://maps.google.com/mapfiles/ms/icons/yellow-dot.png;-45132;-20.4400555555556;3133501;Itapecerica;MG
"Mineradora: Nacional de Grafite Ltda 
Barragem: B4";http://maps.google.com/mapfiles/ms/icons/yellow-dot.png;-45.1484166666667;-20.4378611111111;3133501;Itapecerica;MG
"Mineradora: Arcelormittal Mineração Serra Azul S.a. 
Barragem: Barragem de Rejeitos";http://maps.google.com/mapfiles/ms/icons/yellow-dot.png;-44.3961666666667;-20.1375833333333;3133709;Itatiaiuçu;MG
"Mineradora: Arcelormittal Mineração Serra Azul S.a. 
Barragem: Dique 01 de Terra";http://maps.google.com/mapfiles/ms/icons/red-dot.png;-44.4008308333333;-20.1387119444444;3133709;Itatiaiuçu;MG
"Mineradora: Arcelormittal Mineração Serra Azul S.a. 
Barragem: Dique 2 de Concreto";http://maps.google.com/mapfiles/ms/icons/red-dot.png;-44.4006388888889;-20.1394166666667;3133709;Itatiaiuçu;MG
"Mineradora: Mineração Usiminas S.a. 
Barragem: Barragem Captação de Água";http://maps.google.com/mapfiles/ms/icons/red-dot.png;-44.4508805555556;-20.16925;3133709;Itatiaiuçu;MG
"Mineradora: Mineração Usiminas S.a. 
Barragem: Barragem Central";http://maps.google.com/mapfiles/ms/icons/yellow-dot.png;-44.4061666666667;-20.1475833333333;3133709;Itatiaiuçu;MG
"Mineradora: Mineração Usiminas S.a. 
Barragem: Barragem Mina Oeste (Somisa)";http://maps.google.com/mapfiles/ms/icons/yellow-dot.png;-44.46;-20.1673333333333;3133709;Itatiaiuçu;MG
"Mineradora: Mineração Usiminas S.a. 
Barragem: Barragem Samambaia 0 (Zero)";http://maps.google.com/mapfiles/ms/icons/yellow-dot.png;-44.4485475;-20.1729216666667;3133709;Itatiaiuçu;MG
"Mineradora: Mineração Usiminas S.a. 
Barragem: Dique 06";http://maps.google.com/mapfiles/ms/icons/red-dot.png;-44.45625;-20.1619166666667;3133709;Itatiaiuçu;MG
"Mineradora: Mineração Usiminas S.a. 
Barragem: Dique 14";http://maps.google.com/mapfiles/ms/icons/red-dot.png;-44.4473888888889;-20.1624722222222;3133709;Itatiaiuçu;MG
"Mineradora: Mineração Usiminas S.a. 
Barragem: Dique BIV-3 - Dique Hércules";http://maps.google.com/mapfiles/ms/icons/red-dot.png;-44.4413888888889;-20.1560555555556;3133709;Itatiaiuçu;MG
"Mineradora: Mineração Usiminas S.a. 
Barragem: Dique Couves (MUSA)";http://maps.google.com/mapfiles/ms/icons/red-dot.png;-44.4470833333333;-20.1558888888889;3133709;Itatiaiuçu;MG
"Mineradora: Mineração Usiminas S.a. 
Barragem: Dique da Divisa";http://maps.google.com/mapfiles/ms/icons/red-dot.png;-44.40525;-20.1363333333333;3133709;Itatiaiuçu;MG
"Mineradora: Mineração Usiminas S.a. 
Barragem: Dique da Mineira";http://maps.google.com/mapfiles/ms/icons/red-dot.png;-44.4358333333333;-20.1503611111111;3133709;Itatiaiuçu;MG
"Mineradora: Mineração Usiminas S.a. 
Barragem: Dique Flotação";http://maps.google.com/mapfiles/ms/icons/red-dot.png;-44.4054722222222;-20.1459166666667;3133709;Itatiaiuçu;MG
"Mineradora: Mineração Usiminas S.a. 
Barragem: Dique Intermediário";http://maps.google.com/mapfiles/ms/icons/red-dot.png;-44.4499444444444;-20.1598333333333;3133709;Itatiaiuçu;MG
"Mineradora: Mineração Usiminas S.a. 
Barragem: Dique Mazano";http://maps.google.com/mapfiles/ms/icons/red-dot.png;-44.4224722222222;-20.1403888888889;3133709;Itatiaiuçu;MG
"Mineradora: Mineração Usiminas S.a. 
Barragem: Dique Oeste";http://maps.google.com/mapfiles/ms/icons/yellow-dot.png;-44.4545833333333;-20.1709722222222;3133709;Itatiaiuçu;MG
"Mineradora: Minerita Minérios Itaúna Ltda. 
Barragem: Barragem 01 - Jose Jaime";http://maps.google.com/mapfiles/ms/icons/yellow-dot.png;-44.3836472222222;-20.13715;3133709;Itatiaiuçu;MG
"Mineradora: Minerita Minérios Itaúna Ltda. 
Barragem: Barragem 02 - Canindé";http://maps.google.com/mapfiles/ms/icons/yellow-dot.png;-44.3801888888889;-20.1387;3133709;Itatiaiuçu;MG
"Mineradora: Minerita Minérios Itaúna Ltda. 
Barragem: Barragem 03 - Zé da Grota";http://maps.google.com/mapfiles/ms/icons/yellow-dot.png;-44.3865861111111;-20.138425;3133709;Itatiaiuçu;MG
"Mineradora: Minerita Minérios Itaúna Ltda. 
Barragem: Dique 02 - Pitangui";http://maps.google.com/mapfiles/ms/icons/red-dot.png;-44.3755166666667;-20.1236888888889;3133709;Itatiaiuçu;MG
"Mineradora: Minerita Minérios Itaúna Ltda. 
Barragem: Dique 06 - Véu da Noiva Jusante";http://maps.google.com/mapfiles/ms/icons/red-dot.png;-44.3750111111111;-20.1315166666667;3133709;Itatiaiuçu;MG
"Mineradora: Minerita Minérios Itaúna Ltda. 
Barragem: Dique 08 - Pátio CMC";http://maps.google.com/mapfiles/ms/icons/red-dot.png;-44.3795694444444;-20.1335972222222;3133709;Itatiaiuçu;MG
"Mineradora: Minerita Minérios Itaúna Ltda. 
Barragem: Dique de Concreto";http://maps.google.com/mapfiles/ms/icons/red-dot.png;-44.3766388888889;-20.1318972222222;3133709;Itatiaiuçu;MG
"Mineradora: FERROMINAS - MINERAÇÃO LTDA 
Barragem: Dique BIII-6";http://maps.google.com/mapfiles/ms/icons/red-dot.png;-44.4543861111111;-20.1466722222222;3133808;Itaúna;MG
"Mineradora: FERROMINAS - MINERAÇÃO LTDA 
Barragem: Dique BIII-7";http://maps.google.com/mapfiles/ms/icons/red-dot.png;-44.4514638888889;-20.1468555555556;3133808;Itaúna;MG
"Mineradora: Mbl Materiais Básicos Ltda 
Barragem: Barragem de Rejeito 1";http://maps.google.com/mapfiles/ms/icons/yellow-dot.png;-44.4733888888889;-20.1569166666667;3133808;Itaúna;MG
"Mineradora: Mbl Materiais Básicos Ltda 
Barragem: Dique BIII-2";http://maps.google.com/mapfiles/ms/icons/yellow-dot.png;-44.4599838888889;-20.1483777777778;3133808;Itaúna;MG
"Mineradora: Mbl Materiais Básicos Ltda 
Barragem: Dique BIII-3";http://maps.google.com/mapfiles/ms/icons/yellow-dot.png;-44.4601030555556;-20.1477613888889;3133808;Itaúna;MG
"Mineradora: Mbl Materiais Básicos Ltda 
Barragem: Dique BIII-4";http://maps.google.com/mapfiles/ms/icons/yellow-dot.png;-44.4602786111111;-20.1467769444444;3133808;Itaúna;MG
"Mineradora: Mbl Materiais Básicos Ltda 
Barragem: Dique BIII-5";http://maps.google.com/mapfiles/ms/icons/yellow-dot.png;-44.4606719444444;-20.1464258333333;3133808;Itaúna;MG
"Mineradora: Saint Gobain do Brasil Produtos Industriais e Para Construção Ltda. 
Barragem: Dique 1";http://maps.google.com/mapfiles/ms/icons/red-dot.png;-44.6608833333333;-21.3082388888889;3134509;Itutinga;MG
"Mineradora: Saint Gobain do Brasil Produtos Industriais e Para Construção Ltda. 
Barragem: Dique 2";http://maps.google.com/mapfiles/ms/icons/red-dot.png;-44.6618305555556;-21.3082361111111;3134509;Itutinga;MG
"Mineradora: Saint Gobain do Brasil Produtos Industriais e Para Construção Ltda. 
Barragem: Dique 3";http://maps.google.com/mapfiles/ms/icons/red-dot.png;-44.6620388888889;-21.3087333333333;3134509;Itutinga;MG
"Mineradora: Ferrous Resources do Brasil Sa 
Barragem: BARRAGEM 7";http://maps.google.com/mapfiles/ms/icons/yellow-dot.png;-43.9508611111111;-20.5626111111111;3135407;Jeceaba;MG
"Mineradora: GICS Indústria Comércio e Serviços S.a. Filial: Roberto Eustáquio Silva Pedrosa 
Barragem: CAVA B";http://maps.google.com/mapfiles/ms/icons/yellow-dot.png;-46.8621111111111;-18.2798611111111;3137106;Lagamar;MG
"Mineradora: Roberto Eustáquio Silva Pedrosa 
Barragem: BARRAGEM B1";http://maps.google.com/mapfiles/ms/icons/red-dot.png;-46.8613258333333;-18.2822319444444;3137106;Lagamar;MG
"Mineradora: Samarco Mineração S A. 
Barragem: Barragem de Germano";http://maps.google.com/mapfiles/ms/icons/yellow-dot.png;-43.4679444444444;-20.2165;3140001;Mariana;MG
"Mineradora: Samarco Mineração S A. 
Barragem: Barragem Eixo 1";http://maps.google.com/mapfiles/ms/icons/yellow-dot.png;-43.4601138888889;-20.2104777777778;3140001;Mariana;MG
"Mineradora: Samarco Mineração S A. 
Barragem: Cava do Germano";http://maps.google.com/mapfiles/ms/icons/yellow-dot.png;-43.4930833333333;-20.1948055555556;3140001;Mariana;MG
"Mineradora: Samarco Mineração S A. 
Barragem: Dique B3 - Pilha de Estéril João Manoel";http://maps.google.com/mapfiles/ms/icons/red-dot.png;-43.4961058333333;-20.16991;3140001;Mariana;MG
"Mineradora: Samarco Mineração S A. 
Barragem: Dique S3";http://maps.google.com/mapfiles/ms/icons/yellow-dot.png;-43.4229919444444;-20.2358747222222;3140001;Mariana;MG
"Mineradora: Samarco Mineração S A. 
Barragem: Dique S4";http://maps.google.com/mapfiles/ms/icons/yellow-dot.png;-43.4108869444444;-20.2412777777778;3140001;Mariana;MG
"Mineradora: Samarco Mineração S A. 
Barragem: Nova Barragem de Santarém";http://maps.google.com/mapfiles/ms/icons/yellow-dot.png;-43.4416227777778;-20.2306427777778;3140001;Mariana;MG
"Mineradora: Vale Mariana 
Barragem: ED Xingu";http://maps.google.com/mapfiles/ms/icons/yellow-dot.png;-43.4843722222222;-20.1658277777778;3140001;Mariana;MG
"Mineradora: Vale S A Filial: Vale Mariana 
Barragem: Campo Grande";http://maps.google.com/mapfiles/ms/icons/yellow-dot.png;-43.4873166666667;-20.1760680555556;3140001;Mariana;MG
"Mineradora: Vale S A Filial: Vale Mariana 
Barragem: Captação Córrego das Almas";http://maps.google.com/mapfiles/ms/icons/red-dot.png;-43.4680986111111;-20.1580322222222;3140001;Mariana;MG
"Mineradora: Vale S A Filial: Vale Mariana 
Barragem: Dicão Leste";http://maps.google.com/mapfiles/ms/icons/yellow-dot.png;-43.4123330555556;-20.1392897222222;3140001;Mariana;MG
"Mineradora: Vale S A Filial: Vale Mariana 
Barragem: PDE Engano";http://maps.google.com/mapfiles/ms/icons/red-dot.png;-43.4246111111111;-20.3380555555556;3140001;Mariana;MG
"Mineradora: Vale S A Filial: Vale Mariana 
Barragem: PDE Fosforoso";http://maps.google.com/mapfiles/ms/icons/yellow-dot.png;-43.4693108333333;-20.1593075;3140001;Mariana;MG
"Mineradora: Vale S A Filial: Vale Mariana 
Barragem: PDE Lagoa Seca";http://maps.google.com/mapfiles/ms/icons/red-dot.png;-43.4130833333333;-20.3489722222222;3140001;Mariana;MG
"Mineradora: Vale S A Filial: Vale Mariana 
Barragem: PDE Permanente I";http://maps.google.com/mapfiles/ms/icons/yellow-dot.png;-43.4376136111111;-20.1845319444444;3140001;Mariana;MG
"Mineradora: Vale S A Filial: Vale Mariana 
Barragem: PDE Permanente II - Fase I";http://maps.google.com/mapfiles/ms/icons/yellow-dot.png;-43.4543997222222;-20.2074730555556;3140001;Mariana;MG
"Mineradora: Vale S A Filial: Vale Mariana 
Barragem: PDE Temporária II";http://maps.google.com/mapfiles/ms/icons/red-dot.png;-43.4484863888889;-20.2151177777778;3140001;Mariana;MG
"Mineradora: Mineral do Brasil Ltda. 
Barragem: Dique Caffaro";http://maps.google.com/mapfiles/ms/icons/red-dot.png;-44.1623777777778;-20.095525;3140159;Mário Campos;MG
"Mineradora: Mineração Matheus Leme Ltda 
Barragem: Bacia de Decantação 1";http://maps.google.com/mapfiles/ms/icons/red-dot.png;-44.4708333333333;-19.9344444444444;3140704;Mateus Leme;MG
"Mineradora: Mineração Matheus Leme Ltda 
Barragem: Bacia de Decantação 2";http://maps.google.com/mapfiles/ms/icons/red-dot.png;-44.4713888888889;-19.9341666666667;3140704;Mateus Leme;MG
"Mineradora: Mineração Matheus Leme Ltda 
Barragem: Bacia de Decantação 3";http://maps.google.com/mapfiles/ms/icons/red-dot.png;-44.4719444444444;-19.9338888888889;3140704;Mateus Leme;MG
"Mineradora: Mineração Usiminas S.a. 
Barragem: Dique 01 Serra Azul - Dique Vai e Volta 1";http://maps.google.com/mapfiles/ms/icons/red-dot.png;-44.4201944444444;-20.1290833333333;3140704;Mateus Leme;MG
"Mineradora: Mineração Usiminas S.a. 
Barragem: Dique 02 Serra Azul - Dique Vai e Volta 2";http://maps.google.com/mapfiles/ms/icons/red-dot.png;-44.4225;-20.1302777777778;3140704;Mateus Leme;MG
"Mineradora: Mineração Usiminas S.a. 
Barragem: Dique 03 Serra Azul - Dique Vai e Volta 3";http://maps.google.com/mapfiles/ms/icons/red-dot.png;-44.4267027777778;-20.1307361111111;3140704;Mateus Leme;MG
"Mineradora: Mineração Usiminas S.a. 
Barragem: Dique 13 - Pains";http://maps.google.com/mapfiles/ms/icons/red-dot.png;-44.4001833333333;-20.1244138888889;3140704;Mateus Leme;MG
"Mineradora: Mineração Usiminas S.a. 
Barragem: Dique da Oficina";http://maps.google.com/mapfiles/ms/icons/red-dot.png;-44.4104722222222;-20.1253333333333;3140704;Mateus Leme;MG
"Mineradora: Mineração Usiminas S.a. 
Barragem: Dique da Oficina II";http://maps.google.com/mapfiles/ms/icons/red-dot.png;-44.4135;-20.12625;3140704;Mateus Leme;MG
"Mineradora: Mineração Usiminas S.a. 
Barragem: Dique Leste I";http://maps.google.com/mapfiles/ms/icons/red-dot.png;-44.3712222222222;-20.1213888888889;3140704;Mateus Leme;MG
"Mineradora: Mineração Usiminas S.a. 
Barragem: Dique Leste II";http://maps.google.com/mapfiles/ms/icons/red-dot.png;-44.3717777777778;-20.1202222222222;3140704;Mateus Leme;MG
"Mineradora: Mineração Usiminas S.a. 
Barragem: Dique Leste III";http://maps.google.com/mapfiles/ms/icons/red-dot.png;-44.37125;-20.1160833333333;3140704;Mateus Leme;MG
"Mineradora: Minerita Minérios Itaúna Ltda. 
Barragem: Dique 01 - Serra Azul";http://maps.google.com/mapfiles/ms/icons/red-dot.png;-44.3855222222222;-20.1197944444444;3140704;Mateus Leme;MG
"Mineradora: Samarco Mineração S A. 
Barragem: Barragem de Decantação de Água e Polpa - EBII - Mineroduto";http://maps.google.com/mapfiles/ms/icons/yellow-dot.png;-42.3548077777778;-20.3719558333333;3140902;Matipó;MG
"Mineradora: Bauminas Mineração Ltda 
Barragem: Barragem de Mercês";http://maps.google.com/mapfiles/ms/icons/yellow-dot.png;-43.3503447222222;-21.1325752777778;3141603;Mercês;MG
"Mineradora: Bauminas Mineração Ltda 
Barragem: BARRAGEM BOM JARDIM";http://maps.google.com/mapfiles/ms/icons/yellow-dot.png;-42.7149308333333;-21.2115752777778;3142205;Miraí;MG
"Mineradora: Companhia Brasileira de Alumínio 
Barragem: Miraí";http://maps.google.com/mapfiles/ms/icons/yellow-dot.png;-42.5637627777778;-21.0621547222222;3142205;Miraí;MG
"Mineradora: Amg Mineração S.a. 
Barragem: Volta Grande 1";http://maps.google.com/mapfiles/ms/icons/yellow-dot.png;-44.5868611111111;-21.0856111111111;3144508;Nazareno;MG
"Mineradora: Amg Mineração S.a. 
Barragem: Volta Grande 2";http://maps.google.com/mapfiles/ms/icons/yellow-dot.png;-44.5896666666667;-21.0877777777778;3144508;Nazareno;MG
"Mineradora: Cia Mineradora Catite Duo S. A. 
Barragem: Barragem Mãe D'Água";http://maps.google.com/mapfiles/ms/icons/yellow-dot.png;-43.0299166666667;-19.6017138888889;3144706;Nova Era;MG
"Mineradora: Anglogold Ashanti Córrego do Sítio Mineração S.a. 
Barragem: CALCINADOS";http://maps.google.com/mapfiles/ms/icons/yellow-dot.png;-43.8388888888889;-19.9636111111111;3144805;Nova Lima;MG
"Mineradora: Anglogold Ashanti Córrego do Sítio Mineração S.a. 
Barragem: COCURUTO";http://maps.google.com/mapfiles/ms/icons/yellow-dot.png;-43.8294444444444;-19.9736111111111;3144805;Nova Lima;MG
"Mineradora: EXTRATIVA MINERAL LTDA 
Barragem: Barragem de Contenção de Sólidos Carreados";http://maps.google.com/mapfiles/ms/icons/red-dot.png;-43.9032472222222;-20.1100166666667;3144805;Nova Lima;MG
"Mineradora: EXTRATIVA MINERAL LTDA 
Barragem: Dique - Pilha de Rejeito";http://maps.google.com/mapfiles/ms/icons/red-dot.png;-43.9088;-20.110225;3144805;Nova Lima;MG
"Mineradora: EXTRATIVA MINERAL LTDA 
Barragem: Pilha Barragem";http://maps.google.com/mapfiles/ms/icons/yellow-dot.png;-43.9079166666667;-20.1124166666667;3144805;Nova Lima;MG
"Mineradora: Minerações Brasileiras Reunidas Sa Filial: MBR Paraopeba 
Barragem: B3/B4";http://maps.google.com/mapfiles/ms/icons/yellow-dot.png;-43.9543611111111;-20.0476111111111;3144805;Nova Lima;MG
"Mineradora: Minerações Brasileiras Reunidas Sa Filial: MBR Paraopeba 
Barragem: B6";http://maps.google.com/mapfiles/ms/icons/yellow-dot.png;-43.9640833333333;-20.05825;3144805;Nova Lima;MG
"Mineradora: Minerações Brasileiras Reunidas Sa Filial: MBR Paraopeba 
Barragem: B7";http://maps.google.com/mapfiles/ms/icons/yellow-dot.png;-43.9613333333333;-20.0611388888889;3144805;Nova Lima;MG
"Mineradora: Minerações Brasileiras Reunidas Sa Filial: MBR Paraopeba 
Barragem: Taquaras";http://maps.google.com/mapfiles/ms/icons/yellow-dot.png;-43.9291388888889;-20.0393333333333;3144805;Nova Lima;MG
"Mineradora: Pedras Congonhas Extração Arte e Ind. Ltda 
Barragem: Dique de Contenção de Finos";http://maps.google.com/mapfiles/ms/icons/red-dot.png;-43.8737222222222;-20.1161111111111;3144805;Nova Lima;MG
"Mineradora: Vale Itabiritos 
Barragem: Cianita 2";http://maps.google.com/mapfiles/ms/icons/yellow-dot.png;-43.8791191666667;-20.1972430555556;3144805;Nova Lima;MG
"Mineradora: Vale Paraopeba 
Barragem: 6";http://maps.google.com/mapfiles/ms/icons/yellow-dot.png;-43.8827777777778;-19.96;3144805;Nova Lima;MG
"Mineradora: Vale Paraopeba 
Barragem: 7a";http://maps.google.com/mapfiles/ms/icons/yellow-dot.png;-43.8852777777778;-19.9655555555556;3144805;Nova Lima;MG
"Mineradora: Vale S A Filial: Vale Itabiritos 
Barragem: Cianita 1";http://maps.google.com/mapfiles/ms/icons/yellow-dot.png;-43.8670833333333;-20.1965833333333;3144805;Nova Lima;MG
"Mineradora: Vale S A Filial: Vale Paraopeba 
Barragem: 5 (MAC)";http://maps.google.com/mapfiles/ms/icons/yellow-dot.png;-43.8930027777778;-19.9770866666667;3144805;Nova Lima;MG
"Mineradora: Vale S A Filial: Vale Paraopeba 
Barragem: 5 (Mutuca)";http://maps.google.com/mapfiles/ms/icons/yellow-dot.png;-43.9425625;-20.0262258333333;3144805;Nova Lima;MG
"Mineradora: Vale S A Filial: Vale Paraopeba 
Barragem: 7B";http://maps.google.com/mapfiles/ms/icons/yellow-dot.png;-43.8829791666667;-19.967365;3144805;Nova Lima;MG
"Mineradora: Vale S A Filial: Vale Vargem Grande 
Barragem: B";http://maps.google.com/mapfiles/ms/icons/yellow-dot.png;-43.9252222222222;-20.1244166666667;3144805;Nova Lima;MG
"Mineradora: Vale S A Filial: Vale Vargem Grande 
Barragem: Capão da Serra";http://maps.google.com/mapfiles/ms/icons/yellow-dot.png;-43.9305833333333;-20.0686666666667;3144805;Nova Lima;MG
"Mineradora: Vale S A Filial: Vale Vargem Grande 
Barragem: Capitão do Mato";http://maps.google.com/mapfiles/ms/icons/yellow-dot.png;-43.9256944444444;-20.1298888888889;3144805;Nova Lima;MG
"Mineradora: Vale S A Filial: Vale Vargem Grande 
Barragem: II";http://maps.google.com/mapfiles/ms/icons/yellow-dot.png;-43.8884166666667;-20.1528888888889;3144805;Nova Lima;MG
"Mineradora: Vale S A Filial: Vale Vargem Grande 
Barragem: III";http://maps.google.com/mapfiles/ms/icons/yellow-dot.png;-43.8871111111111;-20.1556944444444;3144805;Nova Lima;MG
"Mineradora: Vale S A Filial: Vale Vargem Grande 
Barragem: Peneirinha";http://maps.google.com/mapfiles/ms/icons/yellow-dot.png;-43.9636141666667;-20.1106152777778;3144805;Nova Lima;MG
"Mineradora: Vale S A Filial: Vale Vargem Grande 
Barragem: Vargem Grande";http://maps.google.com/mapfiles/ms/icons/yellow-dot.png;-43867;-20.1818611111111;3144805;Nova Lima;MG
"Mineradora: Vale Vargem Grande 
Barragem: Dique 1";http://maps.google.com/mapfiles/ms/icons/red-dot.png;-43.8857527777778;-20.1471788888889;3144805;Nova Lima;MG
"Mineradora: Vallourec Tubos do Brasil Ltda. 
Barragem: Cachoeirinha";http://maps.google.com/mapfiles/ms/icons/yellow-dot.png;-43.9654444444445;-20.1527222222222;3144805;Nova Lima;MG
"Mineradora: Vallourec Tubos do Brasil Ltda. 
Barragem: Dique Lisa";http://maps.google.com/mapfiles/ms/icons/yellow-dot.png;-43.9645833333333;-20.14975;3144805;Nova Lima;MG
"Mineradora: Csn Mineração S.a. 
Barragem: BARRAGEM AUXILIAR DO VIGIA";http://maps.google.com/mapfiles/ms/icons/yellow-dot.png;-43.8353055555556;-20.4344444444444;3146107;Ouro Preto;MG
"Mineradora: Csn Mineração S.a. 
Barragem: BARRAGEM DO VIGIA";http://maps.google.com/mapfiles/ms/icons/yellow-dot.png;-43.8340097222222;-20.4379819444444;3146107;Ouro Preto;MG
"Mineradora: Ferro + Mineração S.A. 
Barragem: Barragem de Contenção de Sedimentos do Josino";http://maps.google.com/mapfiles/ms/icons/yellow-dot.png;-43.8646916666667;-20.4256;3146107;Ouro Preto;MG
"Mineradora: Gerdau Açominas S.a. 
Barragem: Alemães";http://maps.google.com/mapfiles/ms/icons/yellow-dot.png;-43.7531027777778;-20.4235583333333;3146107;Ouro Preto;MG
"Mineradora: Gerdau Açominas S.a. 
Barragem: Baias da UTM II";http://maps.google.com/mapfiles/ms/icons/yellow-dot.png;-43.7769444444444;-20.4547777777778;3146107;Ouro Preto;MG
"Mineradora: MINERACAO RODEIO DE BAIXO LTDA Filial: MINERACAO RODEIO DE BAIXO LTDA 
Barragem: MIGUEL BURNIER - DIQUE B1";http://maps.google.com/mapfiles/ms/icons/red-dot.png;-43.7497222222222;-20.4564444444444;3146107;Ouro Preto;MG
"Mineradora: MINERACAO RODEIO DE BAIXO LTDA Filial: MINERACAO RODEIO DE BAIXO LTDA 
Barragem: MIGUEL BURNIER - DIQUE B2";http://maps.google.com/mapfiles/ms/icons/red-dot.png;-43.7499722222222;-20.4564444444444;3146107;Ouro Preto;MG
"Mineradora: MINERACAO RODEIO DE BAIXO LTDA Filial: MINERACAO RODEIO DE BAIXO LTDA 
Barragem: MIGUEL BURNIER - DIQUE B3";http://maps.google.com/mapfiles/ms/icons/red-dot.png;-43.7336388888889;-20.4582222222222;3146107;Ouro Preto;MG
"Mineradora: Samarco Mineração S A. 
Barragem: Dique B11 - Pilha de Estéril Alegria E (Dique do Córrego dos Macacos)";http://maps.google.com/mapfiles/ms/icons/red-dot.png;-43.5083847222222;-20.1939869444444;3146107;Ouro Preto;MG
"Mineradora: Samarco Mineração S A. 
Barragem: Dique B2 - Pilha de Estéril João Manoel";http://maps.google.com/mapfiles/ms/icons/red-dot.png;-43.4980888888889;-20.1709038888889;3146107;Ouro Preto;MG
"Mineradora: Samarco Mineração S A. 
Barragem: Novo Dique dos Macacos";http://maps.google.com/mapfiles/ms/icons/yellow-dot.png;-43.5085;-20.1931416666667;3146107;Ouro Preto;MG
"Mineradora: Topazio Imperial Mineração Comercio e Industria Ltda 
Barragem: Água Fria";http://maps.google.com/mapfiles/ms/icons/yellow-dot.png;-43.6438222222222;-20.4474083333333;3146107;Ouro Preto;MG
"Mineradora: Vale Itabiritos 
Barragem: Área IX";http://maps.google.com/mapfiles/ms/icons/yellow-dot.png;-43.8788519444444;-20.4122538888889;3146107;Ouro Preto;MG
"Mineradora: Vale Mariana 
Barragem: Dique Portaria";http://maps.google.com/mapfiles/ms/icons/red-dot.png;-43.4975830555556;-20.1779561111111;3146107;Ouro Preto;MG
"Mineradora: Vale S A Filial: Vale Itabiritos 
Barragem: Forquilha I";http://maps.google.com/mapfiles/ms/icons/yellow-dot.png;-43.8557222222222;-20.4060555555556;3146107;Ouro Preto;MG
"Mineradora: Vale S A Filial: Vale Itabiritos 
Barragem: Forquilha II";http://maps.google.com/mapfiles/ms/icons/yellow-dot.png;-43.8518055555556;-20.4082777777778;3146107;Ouro Preto;MG
"Mineradora: Vale S A Filial: Vale Itabiritos 
Barragem: Forquilha III";http://maps.google.com/mapfiles/ms/icons/yellow-dot.png;-43.8366111111111;-20.4109166666667;3146107;Ouro Preto;MG
"Mineradora: Vale S A Filial: Vale Itabiritos 
Barragem: Forquilha IV";http://maps.google.com/mapfiles/ms/icons/yellow-dot.png;-43.8515555555556;-20.3947777777778;3146107;Ouro Preto;MG
"Mineradora: Vale S A Filial: Vale Itabiritos 
Barragem: Forquilha V";http://maps.google.com/mapfiles/ms/icons/yellow-dot.png;-43.8396666666667;-20.3948611111111;3146107;Ouro Preto;MG
"Mineradora: Vale S A Filial: Vale Itabiritos 
Barragem: Freitas";http://maps.google.com/mapfiles/ms/icons/yellow-dot.png;-43.8495555555556;-20.4321944444444;3146107;Ouro Preto;MG
"Mineradora: Vale S A Filial: Vale Itabiritos 
Barragem: Grupo";http://maps.google.com/mapfiles/ms/icons/yellow-dot.png;-43.8651388888889;-20.4147777777778;3146107;Ouro Preto;MG
"Mineradora: Vale S A Filial: Vale Itabiritos 
Barragem: Prata";http://maps.google.com/mapfiles/ms/icons/red-dot.png;-43.8652777777778;-20.4117222222222;3146107;Ouro Preto;MG
"Mineradora: Vale S A Filial: Vale Mariana 
Barragem: Doutor";http://maps.google.com/mapfiles/ms/icons/yellow-dot.png;-43.4905277777778;-20.2904486111111;3146107;Ouro Preto;MG
"Mineradora: Vale S A Filial: Vale Mariana 
Barragem: Timbopeba";http://maps.google.com/mapfiles/ms/icons/yellow-dot.png;-43.4962352777778;-20.2705144444444;3146107;Ouro Preto;MG
"Mineradora: VERMELHÃO MINERAÇÃO INDUSTRIA E COMERCIO LTDA 
Barragem: B5";http://maps.google.com/mapfiles/ms/icons/yellow-dot.png;-43.5341666666667;-20.4018055555556;3146107;Ouro Preto;MG
"Mineradora: Kinross Brasil Mineração S A 
Barragem: Barragem Eustáquio";http://maps.google.com/mapfiles/ms/icons/yellow-dot.png;-46.9021916666667;-17.1460888888889;3147006;Paracatu;MG
"Mineradora: Kinross Brasil Mineração S A 
Barragem: Barragem Santo Antônio";http://maps.google.com/mapfiles/ms/icons/yellow-dot.png;-46.8562611111111;-17.1463333333333;3147006;Paracatu;MG
"Mineradora: Kinross Brasil Mineração S A 
Barragem: Tanque Específico IX-B";http://maps.google.com/mapfiles/ms/icons/yellow-dot.png;-46.8790972222222;-17.1741444444444;3147006;Paracatu;MG
"Mineradora: Kinross Brasil Mineração S A 
Barragem: Tanque Específico X";http://maps.google.com/mapfiles/ms/icons/yellow-dot.png;-46.8877694444445;-17.1754361111111;3147006;Paracatu;MG
"Mineradora: Kinross Brasil Mineração S A 
Barragem: Tanque Específico XI";http://maps.google.com/mapfiles/ms/icons/yellow-dot.png;-46.8833111111111;-17.1724083333333;3147006;Paracatu;MG
"Mineradora: Kinross Brasil Mineração S A 
Barragem: Tanque Específico XII";http://maps.google.com/mapfiles/ms/icons/yellow-dot.png;-46.8988;-17.1822722222222;3147006;Paracatu;MG
"Mineradora: NEXA RECURSOS MINERAIS S A 
Barragem: Bacia de clarificação depósito de estéril Ambrosia sul";http://maps.google.com/mapfiles/ms/icons/red-dot.png;-46.757905;-17.1572908333333;3147006;Paracatu;MG
"Mineradora: NEXA RECURSOS MINERAIS S A 
Barragem: Barragem 1";http://maps.google.com/mapfiles/ms/icons/yellow-dot.png;-46.8187638888889;-17.4962558333333;3147006;Paracatu;MG
"Mineradora: NEXA RECURSOS MINERAIS S A 
Barragem: Barragem 2";http://maps.google.com/mapfiles/ms/icons/yellow-dot.png;-46.8283277777778;-17.5106088888889;3147006;Paracatu;MG
"Mineradora: NEXA RECURSOS MINERAIS S A 
Barragem: Barragem 3";http://maps.google.com/mapfiles/ms/icons/yellow-dot.png;-46.8284138888889;-17.5132688888889;3147006;Paracatu;MG
"Mineradora: Mosaic Fertilizantes P&K S.A. Filial: Patos 
Barragem: Barragem A";http://maps.google.com/mapfiles/ms/icons/yellow-dot.png;-46.9264722222222;-18.3790277777778;3148004;Patos de Minas;MG
"Mineradora: Mosaic Fertilizantes P&K S.A. Filial: Patos 
Barragem: Barragem B";http://maps.google.com/mapfiles/ms/icons/yellow-dot.png;-46.9271944444444;-18.3808888888889;3148004;Patos de Minas;MG
"Mineradora: Mosaic Fertilizantes P&K S.A. Filial: Patos 
Barragem: Barragem C";http://maps.google.com/mapfiles/ms/icons/yellow-dot.png;-46.9328333333333;-18.3798055555556;3148004;Patos de Minas;MG
"Mineradora: Mosaic Fertilizantes P&k Ltda 
Barragem: Ensecadeira";http://maps.google.com/mapfiles/ms/icons/red-dot.png;-46.7727558333333;-19.0007077777778;3148103;Patrocínio;MG
"Mineradora: Mosaic Fertilizantes P&k Ltda 
Barragem: Pond - PDE Sul";http://maps.google.com/mapfiles/ms/icons/red-dot.png;-46.7996997222222;-18.9867088888889;3148103;Patrocínio;MG
"Mineradora: Nacional de Grafite Ltda 
Barragem: Marçu";http://maps.google.com/mapfiles/ms/icons/yellow-dot.png;-41.0602222222222;-15.8888333333333;3148707;Pedra Azul;MG
"Mineradora: Nacional de Grafite Ltda 
Barragem: Rancho Casca";http://maps.google.com/mapfiles/ms/icons/yellow-dot.png;-41.0390555555556;-15.9188611111111;3148707;Pedra Azul;MG
"Mineradora: Mineração Riacho dos Machados Ltda. 
Barragem: Barragem MRDM";http://maps.google.com/mapfiles/ms/icons/yellow-dot.png;-43.1291666666667;-16.05625;3154507;Riacho dos Machados;MG
"Mineradora: Massa Falida de Mundo Mineração Ltda. 
Barragem: Barragem II Mina Engenho";http://maps.google.com/mapfiles/ms/icons/yellow-dot.png;-43.7947222222222;-20.0628055555556;3154804;Rio Acima;MG
"Mineradora: Massa Falida de Mundo Mineração Ltda. 
Barragem: Barragem Mina Engenho";http://maps.google.com/mapfiles/ms/icons/yellow-dot.png;-43.7946944444444;-20.0616944444444;3154804;Rio Acima;MG
"Mineradora: Minérios Nacional S.a. 
Barragem: BARRAGEM B2";http://maps.google.com/mapfiles/ms/icons/yellow-dot.png;-43.8478058333333;-20.1610119444444;3154804;Rio Acima;MG
"Mineradora: Minérios Nacional S.a. 
Barragem: BARRAGEM B2 AUXILIAR";http://maps.google.com/mapfiles/ms/icons/yellow-dot.png;-43.8510027777778;-20.1633888888889;3154804;Rio Acima;MG
"Mineradora: Minérios Nacional S.a. 
Barragem: BARRAGEM ECOLÓGICA 1";http://maps.google.com/mapfiles/ms/icons/yellow-dot.png;-43.8429958333333;-20.1588408333333;3154804;Rio Acima;MG
"Mineradora: Minérios Nacional S.a. 
Barragem: BARRAGEM ECOLÓGICA 2";http://maps.google.com/mapfiles/ms/icons/yellow-dot.png;-43.8473547222222;-20.1583527777778;3154804;Rio Acima;MG
"Mineradora: Vale S A Filial: Vale Vargem Grande 
Barragem: Captação Trovões";http://maps.google.com/mapfiles/ms/icons/red-dot.png;-43.8614722222222;-20.1687222222222;3154804;Rio Acima;MG
"Mineradora: Vale S A Filial: Vale Vargem Grande 
Barragem: Fernandinho";http://maps.google.com/mapfiles/ms/icons/yellow-dot.png;-43.8595;-20.1833055555556;3154804;Rio Acima;MG
"Mineradora: Vale Minas Centrais 
Barragem: ED Vale das Cobras";http://maps.google.com/mapfiles/ms/icons/yellow-dot.png;-43.2127333333333;-19.9269027777778;3155702;Rio Piracicaba;MG
"Mineradora: Vale S A Filial: Vale Minas Centrais 
Barragem: Diogo";http://maps.google.com/mapfiles/ms/icons/yellow-dot.png;-43.1961938888889;-19.9299422222222;3155702;Rio Piracicaba;MG
"Mineradora: Vale S A Filial: Vale Minas Centrais 
Barragem: Elefante";http://maps.google.com/mapfiles/ms/icons/yellow-dot.png;-43.2092133333333;-19.9324586111111;3155702;Rio Piracicaba;MG
"Mineradora: Anglogold Ashanti Córrego do Sítio Mineração S.a. 
Barragem: CONTENÇÃO DE REJEITOS DE CUIABÁ";http://maps.google.com/mapfiles/ms/icons/yellow-dot.png;-43.7275597222222;-19.8657819444444;3156700;Sabará;MG
"Mineradora: AVG Empreendimentos Minerários S.A 
Barragem: Barragem do Fundão";http://maps.google.com/mapfiles/ms/icons/red-dot.png;-43.7170777777778;-19.8214138888889;3156700;Sabará;MG
"Mineradora: AVG Empreendimentos Minerários S.A 
Barragem: Barragem dos Coqueiros";http://maps.google.com/mapfiles/ms/icons/red-dot.png;-43.7101361111111;-19.8154666666667;3156700;Sabará;MG
"Mineradora: AVG Empreendimentos Minerários S.A 
Barragem: Pilha 01";http://maps.google.com/mapfiles/ms/icons/yellow-dot.png;-43.7088861111111;-19.8200472222222;3156700;Sabará;MG
"Mineradora: AVG Empreendimentos Minerários S.A 
Barragem: Pilha 02";http://maps.google.com/mapfiles/ms/icons/yellow-dot.png;-43.6942555555556;-19.8204083333333;3156700;Sabará;MG
"Mineradora: Vale Minas Centrais 
Barragem: Dique 8";http://maps.google.com/mapfiles/ms/icons/red-dot.png;-43.7922222222222;-19.8716666666667;3156700;Sabará;MG
"Mineradora: Vale S A Filial: Vale Minas Centrais 
Barragem: Galego";http://maps.google.com/mapfiles/ms/icons/yellow-dot.png;-43.8045277777778;-19.8571944444444;3156700;Sabará;MG
"Mineradora: Nacional de Grafite Ltda 
Barragem: Califórnia";http://maps.google.com/mapfiles/ms/icons/yellow-dot.png;-39.9469444444444;-16.2076388888889;3157104;Salto da Divisa;MG
"Mineradora: Anglogold Ashanti Córrego do Sítio Mineração S.a. 
Barragem: CONTENÇÃO DE FINOS DE CDS I";http://maps.google.com/mapfiles/ms/icons/yellow-dot.png;-43.4927777777778;-20.0191666666667;3157203;Santa Bárbara;MG
"Mineradora: Anglogold Ashanti Córrego do Sítio Mineração S.a. 
Barragem: CONTENÇÃO DE REJEITOS DE CDS II";http://maps.google.com/mapfiles/ms/icons/yellow-dot.png;-43.4713888888889;-19.9847222222222;3157203;Santa Bárbara;MG
"Mineradora: Vale Minas Centrais 
Barragem: ED Monjolo";http://maps.google.com/mapfiles/ms/icons/yellow-dot.png;-43.2220388888889;-19.9481666666667;3157203;Santa Bárbara;MG
"Mineradora: Vale S A Filial: Vale Mariana 
Barragem: Captação";http://maps.google.com/mapfiles/ms/icons/red-dot.png;-43.60225;-20.2028333333333;3157203;Santa Bárbara;MG
"Mineradora: Vale S A Filial: Vale Mariana 
Barragem: Pocilga";http://maps.google.com/mapfiles/ms/icons/red-dot.png;-43.60575;-20.1850833333333;3157203;Santa Bárbara;MG
"Mineradora: Vale S A Filial: Vale Mariana 
Barragem: Principal";http://maps.google.com/mapfiles/ms/icons/yellow-dot.png;-43.6153055555556;-20.1735;3157203;Santa Bárbara;MG
"Mineradora: Vale S A Filial: Vale Minas Centrais 
Barragem: Monjolo";http://maps.google.com/mapfiles/ms/icons/yellow-dot.png;-43.2378675;-19.9636397222222;3157203;Santa Bárbara;MG
"Mineradora: Vale S A Filial: Vale Minas Centrais 
Barragem: Porteirinha";http://maps.google.com/mapfiles/ms/icons/yellow-dot.png;-43.38568;-19.9592038888889;3157203;Santa Bárbara;MG
"Mineradora: Anglo American Minério de Ferro Brasil S.a 
Barragem: EB-2";http://maps.google.com/mapfiles/ms/icons/yellow-dot.png;-42.5618888888889;-20.3448055555556;3160108;Santo Antônio do Grama;MG
"Mineradora: Leonardo Pittella 
Barragem: TQ-1";http://maps.google.com/mapfiles/ms/icons/red-dot.png;-43.2855277777778;-19.8915277777778;3161908;São Gonçalo do Rio Abaixo;MG
"Mineradora: Leonardo Pittella 
Barragem: TQ-2";http://maps.google.com/mapfiles/ms/icons/red-dot.png;-43.2847222222222;-19.8921111111111;3161908;São Gonçalo do Rio Abaixo;MG
"Mineradora: Saint Gobain do Brasil Produtos Industriais e Para Construção Ltda. 
Barragem: TQ-1";http://maps.google.com/mapfiles/ms/icons/red-dot.png;-43.2855277777778;-19.8915277777778;3161908;São Gonçalo do Rio Abaixo;MG
"Mineradora: Saint Gobain do Brasil Produtos Industriais e Para Construção Ltda. 
Barragem: TQ-2";http://maps.google.com/mapfiles/ms/icons/red-dot.png;-43.2847222222222;-19.8921111111111;3161908;São Gonçalo do Rio Abaixo;MG
"Mineradora: Vale S A Filial: Vale Minas Centrais 
Barragem: B3";http://maps.google.com/mapfiles/ms/icons/yellow-dot.png;-43.3782472222222;-19.8786497222222;3161908;São Gonçalo do Rio Abaixo;MG
"Mineradora: Vale S A Filial: Vale Minas Centrais 
Barragem: Dicão";http://maps.google.com/mapfiles/ms/icons/yellow-dot.png;-43.3797283333333;-19.8747786111111;3161908;São Gonçalo do Rio Abaixo;MG
"Mineradora: Vale S A Filial: Vale Minas Centrais 
Barragem: PDE 3";http://maps.google.com/mapfiles/ms/icons/yellow-dot.png;-43.3558694444445;-19.8641436111111;3161908;São Gonçalo do Rio Abaixo;MG
"Mineradora: Vale S A Filial: Vale Minas Centrais 
Barragem: Sul (Córrego do Canal)";http://maps.google.com/mapfiles/ms/icons/yellow-dot.png;-43.38568;-19.883975;3161908;São Gonçalo do Rio Abaixo;MG
"Mineradora: Amg Mineração S.a. 
Barragem: Volta Grande 3";http://maps.google.com/mapfiles/ms/icons/yellow-dot.png;-44.5884833333333;-21.0726666666667;3165008;São Tiago;MG
"Mineradora: Itaminas Comércio de Minérios S.a. 
Barragem: B1";http://maps.google.com/mapfiles/ms/icons/yellow-dot.png;-44.1140833333333;-20.0645277777778;3165537;Sarzedo;MG
"Mineradora: Itaminas Comércio de Minérios S.a. 
Barragem: B4";http://maps.google.com/mapfiles/ms/icons/yellow-dot.png;-44.1;-20.0918333333333;3165537;Sarzedo;MG
"Mineradora: Mineração Pedra Menina Ltda 
Barragem: D-1";http://maps.google.com/mapfiles/ms/icons/red-dot.png;-43.1690138888889;-17.9683138888889;3165909;Senador Modestino Gonçalves;MG
"Mineradora: Mineração Pedra Menina Ltda 
Barragem: D-2";http://maps.google.com/mapfiles/ms/icons/red-dot.png;-43.1697777777778;-17.9684611111111;3165909;Senador Modestino Gonçalves;MG
"Mineradora: Mineração Pedra Menina Ltda 
Barragem: D-3";http://maps.google.com/mapfiles/ms/icons/red-dot.png;-43.1697444444444;-17.9686583333333;3165909;Senador Modestino Gonçalves;MG
"Mineradora: GICS Indústria Comércio e Serviços S.a. 
Barragem: BARRAGEM DO SABÃO I";http://maps.google.com/mapfiles/ms/icons/yellow-dot.png;-46.7239722222222;-19.0478333333333;3166808;Serra do Salitre;MG
"Mineradora: Mosaic Fertilizantes P&K S.A. Filial: Tapira 
Barragem: Barragem BA-3";http://maps.google.com/mapfiles/ms/icons/yellow-dot.png;-46.8683055555556;-19.8233055555556;3168101;Tapira;MG
"Mineradora: Mosaic Fertilizantes P&K S.A. Filial: Tapira 
Barragem: Barragem BD-2";http://maps.google.com/mapfiles/ms/icons/yellow-dot.png;-46.8373611111111;-19.83725;3168101;Tapira;MG
"Mineradora: Mosaic Fertilizantes P&K S.A. Filial: Tapira 
Barragem: Barragem BD-5";http://maps.google.com/mapfiles/ms/icons/yellow-dot.png;-46.8418055555556;-19.8210277777778;3168101;Tapira;MG
"Mineradora: Mosaic Fertilizantes P&K S.A. Filial: Tapira 
Barragem: Barragem BL-1";http://maps.google.com/mapfiles/ms/icons/yellow-dot.png;-46.86425;-19.8424722222222;3168101;Tapira;MG
"Mineradora: Mosaic Fertilizantes P&K S.A. Filial: Tapira 
Barragem: Barragem BR";http://maps.google.com/mapfiles/ms/icons/yellow-dot.png;-46.8327777777778;-19.8385;3168101;Tapira;MG
"Mineradora: Mosaic Fertilizantes P&K S.A. Filial: Tapira 
Barragem: Barragem BRI";http://maps.google.com/mapfiles/ms/icons/yellow-dot.png;-46.8788888888889;-19.7888611111111;3168101;Tapira;MG
"Mineradora: Magnesita Mineração S.A. 
Barragem: BARRAGEM USINA BENEFICIAMENTO ESPONGILITO";http://maps.google.com/mapfiles/ms/icons/red-dot.png;-47.9551444444444;-19.4106333333333;3170107;Uberaba;MG
"Mineradora: Magnesita Mineração S.A. 
Barragem: BARRAGEM USINA BENEFICIAMENTO L7 - IIB";http://maps.google.com/mapfiles/ms/icons/red-dot.png;-47.9562861111111;-19.4107972222222;3170107;Uberaba;MG
"Mineradora: Magnesita Mineração S.A. Filial: FAZENDA BELA VISTA 
Barragem: BARRAGEM  USINA BENEFICIAMENTO L7 - IIB";http://maps.google.com/mapfiles/ms/icons/red-dot.png;-47.9556833333333;-19.41065;3170107;Uberaba;MG
"Mineradora: Magnesita Mineração S.A. Filial: FAZENDA BELA VISTA 
Barragem: BARRAGEM USINA BENEFICIAMENTO ESPONGILITO - IVA";http://maps.google.com/mapfiles/ms/icons/red-dot.png;-47.9556833333333;-19.41065;3170107;Uberaba;MG
"Mineradora: Magnesita Mineração S.A. Filial: FAZENDA BELA VISTA 
Barragem: BARRAGEM USINA BENEFICIAMENTO ESPONGILITO - IVB";http://maps.google.com/mapfiles/ms/icons/red-dot.png;-47.9556833333333;-19.41065;3170107;Uberaba;MG
"Mineradora: Magnesita Mineração S.A. Filial: FAZENDA BELA VISTA 
Barragem: BARRAGEM USINA BENEFICIAMENTO L7 - IIA";http://maps.google.com/mapfiles/ms/icons/red-dot.png;-47.9556833333333;-19.4103055555556;3170107;Uberaba;MG
"Mineradora: Magnesita Mineração S.A. Filial: FAZENDA BELA VISTA 
Barragem: BARRAGEM USINA BENEFICIAMENTO L8 - IIIA";http://maps.google.com/mapfiles/ms/icons/red-dot.png;-47.9556833333333;-19.40975;3170107;Uberaba;MG
"Mineradora: Magnesita Mineração S.A. Filial: FAZENDA BELA VISTA 
Barragem: BARRAGEM USINA BENEFICIAMENTO L8 - IIIB";http://maps.google.com/mapfiles/ms/icons/red-dot.png;-47.9556833333333;-19.4094722222222;3170107;Uberaba;MG
"Mineradora: NEXA RECURSOS MINERAIS S A 
Barragem: Barragem Aroeira";http://maps.google.com/mapfiles/ms/icons/yellow-dot.png;-46.8144722222222;-17.9726111111111;3171006;Vazante;MG
"Mineradora: Mineração Corumbaense Reunida Sa 
Barragem: Bacia 02-03 Alto da Serra Mn";http://maps.google.com/mapfiles/ms/icons/red-dot.png;-57.6166975;-19.1908094444444;5003207;Corumbá;MS
"Mineradora: Mineração Corumbaense Reunida Sa 
Barragem: Bacia 05 Alto da Serra";http://maps.google.com/mapfiles/ms/icons/red-dot.png;-57.6137813888889;-19.1918402777778;5003207;Corumbá;MS
"Mineradora: Mineração Corumbaense Reunida Sa 
Barragem: Bacia 07 Alto da Serra";http://maps.google.com/mapfiles/ms/icons/red-dot.png;-57.6145905555556;-19.1920363888889;5003207;Corumbá;MS
"Mineradora: Mineração Corumbaense Reunida Sa 
Barragem: Gregório";http://maps.google.com/mapfiles/ms/icons/yellow-dot.png;-57.5599791666667;-19.2244466666667;5003207;Corumbá;MS
"Mineradora: Vetorial Mineração S A 
Barragem: Bacia ""S""";http://maps.google.com/mapfiles/ms/icons/red-dot.png;-57.5287777777778;-19.2609722222222;5003207;Corumbá;MS
"Mineradora: Vetorial Mineração S A 
Barragem: Bacia B-2A";http://maps.google.com/mapfiles/ms/icons/red-dot.png;-57.5285555555555;-19.2615555555556;5003207;Corumbá;MS
"Mineradora: Vetorial Mineração S A 
Barragem: Bacia B-2B";http://maps.google.com/mapfiles/ms/icons/red-dot.png;-57.5285555555555;-19.2615555555556;5003207;Corumbá;MS
"Mineradora: Vetorial Mineração S A 
Barragem: Bacia B-3";http://maps.google.com/mapfiles/ms/icons/red-dot.png;-57.5284166666667;-19.2624166666667;5003207;Corumbá;MS
"Mineradora: Vetorial Mineração S A 
Barragem: Bacia B-4";http://maps.google.com/mapfiles/ms/icons/red-dot.png;-57.5279166666667;-19.2620833333333;5003207;Corumbá;MS
"Mineradora: Vetorial Mineração S A 
Barragem: Bacia B-5A";http://maps.google.com/mapfiles/ms/icons/red-dot.png;-57.5277777777778;-19.2623333333333;5003207;Corumbá;MS
"Mineradora: Vetorial Mineração S A 
Barragem: Bacia B-5B";http://maps.google.com/mapfiles/ms/icons/red-dot.png;-57.5276111111111;-19.2625;5003207;Corumbá;MS
"Mineradora: Vetorial Mineração S A 
Barragem: Bacia B-8";http://maps.google.com/mapfiles/ms/icons/red-dot.png;-57.5270555555555;-19.2646666666667;5003207;Corumbá;MS
"Mineradora: Vetorial Mineração S A 
Barragem: Bacia B-9";http://maps.google.com/mapfiles/ms/icons/yellow-dot.png;-57.5266111111111;-19.2652777777778;5003207;Corumbá;MS
"Mineradora: Vetorial Mineração S A 
Barragem: Baia 4";http://maps.google.com/mapfiles/ms/icons/red-dot.png;-57.6394388888889;-19.2003508333333;5003207;Corumbá;MS
"Mineradora: Vetorial Mineração S A 
Barragem: Barragem B-6";http://maps.google.com/mapfiles/ms/icons/yellow-dot.png;-57.5270555555555;-19.2626944444444;5003207;Corumbá;MS
"Mineradora: Vetorial Mineração S A 
Barragem: Barragem Sul";http://maps.google.com/mapfiles/ms/icons/yellow-dot.png;-57.6353055555556;-19.2055277777778;5003207;Corumbá;MS
"Mineradora: Mineração Corumbaense Reunida Sa 
Barragem: Bacia 02 Pé da Serra";http://maps.google.com/mapfiles/ms/icons/yellow-dot.png;-57.6364447222222;-19.171285;5005202;Ladário;MS
"Mineradora: Mineração Corumbaense Reunida Sa 
Barragem: Bacia 03-04 Pé da Serra";http://maps.google.com/mapfiles/ms/icons/yellow-dot.png;-57.6395083333333;-19.1740308333333;5005202;Ladário;MS
"Mineradora: Euler Oliveira Coelho 
Barragem: BARRAGEM T02";http://maps.google.com/mapfiles/ms/icons/yellow-dot.png;-55.8225944444444;-15.5618166666667;5103403;Cuiabá;MT
"Mineradora: MINERACAO CASA DE PEDRA LTDA 
Barragem: CASA DE PEDRA";http://maps.google.com/mapfiles/ms/icons/yellow-dot.png;-55.79275;-15.5601111111111;5103403;Cuiabá;MT
"Mineradora: Valdinei Mauro de Souza 
Barragem: Barragem T04";http://maps.google.com/mapfiles/ms/icons/red-dot.png;-55.8034555555556;-15.5572555555556;5103403;Cuiabá;MT
"Mineradora: Vantage Brasil Mineração Ltda. 
Barragem: Rejeito";http://maps.google.com/mapfiles/ms/icons/red-dot.png;-59.0862647222222;-11.3133969444444;5105150;Juína;MT
"Mineradora: A R Weber Me 
Barragem: Barragem de Rejeito 01";http://maps.google.com/mapfiles/ms/icons/red-dot.png;-56.2857222222222;-15.77475;5106109;Nossa Senhora do Livramento;MT
"Mineradora: Antônio da Cunha Barbosa Filho 
Barragem: Barragem de Rejeito Estrela";http://maps.google.com/mapfiles/ms/icons/yellow-dot.png;-56.3870222222222;-15.6502783333333;5106109;Nossa Senhora do Livramento;MT
"Mineradora: Antônio da Cunha Barbosa Filho 
Barragem: Barragem de Rejeito Estrela 02";http://maps.google.com/mapfiles/ms/icons/yellow-dot.png;-56.385375;-15.656125;5106109;Nossa Senhora do Livramento;MT
"Mineradora: Arthur Henrique de Melo 
Barragem: B1";http://maps.google.com/mapfiles/ms/icons/yellow-dot.png;-56.3945555555555;-16.1398333333333;5106109;Nossa Senhora do Livramento;MT
"Mineradora: Darci Nascimento Epp 
Barragem: Barragem Salinas 1";http://maps.google.com/mapfiles/ms/icons/red-dot.png;-56.4185833333333;-16.18325;5106109;Nossa Senhora do Livramento;MT
"Mineradora: Euler Oliveira Coelho 
Barragem: BARRAGEM T03";http://maps.google.com/mapfiles/ms/icons/yellow-dot.png;-56.1867666666667;-15.8347888888889;5106109;Nossa Senhora do Livramento;MT
"Mineradora: Filadelfo dos Reis Dias 
Barragem: BR BOSCO";http://maps.google.com/mapfiles/ms/icons/yellow-dot.png;-56.3378408333333;-15.6563558333333;5106109;Nossa Senhora do Livramento;MT
"Mineradora: Filadelfo dos Reis Dias 
Barragem: BR PIRÂMIDE";http://maps.google.com/mapfiles/ms/icons/yellow-dot.png;-56.3440527777778;-15.6618861111111;5106109;Nossa Senhora do Livramento;MT
"Mineradora: Filadelfo dos Reis Dias 
Barragem: BR SANTA 01";http://maps.google.com/mapfiles/ms/icons/yellow-dot.png;-56.3540361111111;-15.659775;5106109;Nossa Senhora do Livramento;MT
"Mineradora: Filadelfo dos Reis Dias 
Barragem: BR SANTA FELICIDADE";http://maps.google.com/mapfiles/ms/icons/yellow-dot.png;-56.3526138888889;-15.6638458333333;5106109;Nossa Senhora do Livramento;MT
"Mineradora: Filadelfo dos Reis Dias 
Barragem: BR SANTA FELICIDADE 03";http://maps.google.com/mapfiles/ms/icons/yellow-dot.png;-56.3505027777778;-15.6649194444444;5106109;Nossa Senhora do Livramento;MT
"Mineradora: Filadelfo dos Reis Dias 
Barragem: Santa Felicidade";http://maps.google.com/mapfiles/ms/icons/red-dot.png;-56.3545472222222;-15.6642944444444;5106109;Nossa Senhora do Livramento;MT
"Mineradora: Humberto Covezzi 
Barragem: Tanque Fundo";http://maps.google.com/mapfiles/ms/icons/yellow-dot.png;-56.3138555555555;-15.9875361111111;5106109;Nossa Senhora do Livramento;MT
"Mineradora: Jeová Barbosa de Morais 
Barragem: Santa Tereza";http://maps.google.com/mapfiles/ms/icons/yellow-dot.png;-56.1721944444444;-15.8725277777778;5106109;Nossa Senhora do Livramento;MT
"Mineradora: Jeová Barbosa de Morais 
Barragem: Santa Tereza II";http://maps.google.com/mapfiles/ms/icons/yellow-dot.png;-56.1665658333333;-15.8746247222222;5106109;Nossa Senhora do Livramento;MT
"Mineradora: José Maria Otávio Martins Duarte 
Barragem: Barragem de Rejeitos Bom Futuro";http://maps.google.com/mapfiles/ms/icons/yellow-dot.png;-56.2850833333333;-15.6592777777778;5106109;Nossa Senhora do Livramento;MT
"Mineradora: Manoel Rodrigues Gimenes 
Barragem: MANÉ";http://maps.google.com/mapfiles/ms/icons/red-dot.png;-56.3901916666667;-15.8114027777778;5106109;Nossa Senhora do Livramento;MT
"Mineradora: Mara Daisy Gil Dias 
Barragem: Barragem de Rejeito Estrela 03";http://maps.google.com/mapfiles/ms/icons/yellow-dot.png;-56.3887638888889;-15.6546388888889;5106109;Nossa Senhora do Livramento;MT
"Mineradora: Mara Daisy Gil Dias 
Barragem: Santa Maria";http://maps.google.com/mapfiles/ms/icons/yellow-dot.png;-56.3813388888889;-15.6479638888889;5106109;Nossa Senhora do Livramento;MT
"Mineradora: Marcio Nascimento 
Barragem: Barragem de Rejeito Max";http://maps.google.com/mapfiles/ms/icons/yellow-dot.png;-56.1853888888889;-15.8955833333333;5106109;Nossa Senhora do Livramento;MT
"Mineradora: P C Traven 
Barragem: BACIA DE REJEITO MINERGOLD";http://maps.google.com/mapfiles/ms/icons/red-dot.png;-56.3339166666667;-15.6965277777778;5106109;Nossa Senhora do Livramento;MT
"Mineradora: PEDRO CERQUEIRA CALDAS 
Barragem: Rabo de Bica";http://maps.google.com/mapfiles/ms/icons/red-dot.png;-56.2030819444444;-15.9054188888889;5106109;Nossa Senhora do Livramento;MT
"Mineradora: Reginaldo Luiz de Almeida Ferreira Me 
Barragem: Bacia de Rejeitos";http://maps.google.com/mapfiles/ms/icons/yellow-dot.png;-56.3509722222222;-15.6913611111111;5106109;Nossa Senhora do Livramento;MT
"Mineradora: Salinas Gold Mineração Ltda 
Barragem: Barragem 01";http://maps.google.com/mapfiles/ms/icons/yellow-dot.png;-56.4350111111111;-16.1842555555556;5106109;Nossa Senhora do Livramento;MT
"Mineradora: Sergio da Silva 
Barragem: Bacia de Decantação S1";http://maps.google.com/mapfiles/ms/icons/red-dot.png;-56.1635647222222;-15.9238458333333;5106109;Nossa Senhora do Livramento;MT
"Mineradora: Sergio da Silva 
Barragem: Barragem do Serginho";http://maps.google.com/mapfiles/ms/icons/yellow-dot.png;-56.1632055555556;-15.9217444444444;5106109;Nossa Senhora do Livramento;MT
"Mineradora: T G de Souza 
Barragem: T G de Souza";http://maps.google.com/mapfiles/ms/icons/red-dot.png;-56.3654805555556;-15.6931361111111;5106109;Nossa Senhora do Livramento;MT
"Mineradora: Valdemir Carlos de Souza 
Barragem: Moça Bonita";http://maps.google.com/mapfiles/ms/icons/red-dot.png;-56.4131022222222;-16.1905177777778;5106109;Nossa Senhora do Livramento;MT
"Mineradora: VM Mineração e Construção Eireli EPP 
Barragem: Barragem TB02";http://maps.google.com/mapfiles/ms/icons/red-dot.png;-56.4796111111111;-15.9598611111111;5106109;Nossa Senhora do Livramento;MT
"Mineradora: VM Mineração e Construção Eireli EPP 
Barragem: TB01";http://maps.google.com/mapfiles/ms/icons/yellow-dot.png;-56.4798666666667;-15.9565861111111;5106109;Nossa Senhora do Livramento;MT
"Mineradora: Yan Bittencourt nascimento 
Barragem: Barragem Candonga";http://maps.google.com/mapfiles/ms/icons/red-dot.png;-56.2249369444445;-15.8634377777778;5106109;Nossa Senhora do Livramento;MT
"Mineradora: Euromaquinas Mineração Ltda 
Barragem: B1";http://maps.google.com/mapfiles/ms/icons/yellow-dot.png;-59.7753083333333;-14.5447333333333;5106182;Nova Lacerda;MT
"Mineradora: Euromaquinas Mineração Ltda 
Barragem: B5";http://maps.google.com/mapfiles/ms/icons/yellow-dot.png;-59.7702444444445;-14.5371111111111;5106182;Nova Lacerda;MT
"Mineradora: Alta Floresta Gold Mineração Ltda. 
Barragem: Dorival";http://maps.google.com/mapfiles/ms/icons/red-dot.png;-55.1861555555556;-10.8024861111111;5106190;Nova Santa Helena;MT
"Mineradora: Alta Floresta Gold Mineração Ltda. 
Barragem: Santa Helena";http://maps.google.com/mapfiles/ms/icons/red-dot.png;-55.1861555555556;-10.8024861111111;5106190;Nova Santa Helena;MT
"Mineradora: Angelo Carlos Vicari Junior 
Barragem: BARRAGEM  BLOCO NORTE";http://maps.google.com/mapfiles/ms/icons/red-dot.png;-54.8279166666667;-10.6879722222222;5106190;Nova Santa Helena;MT
"Mineradora: Angelo Carlos Vicari Junior 
Barragem: BARRAGEM BLOCO  SUL";http://maps.google.com/mapfiles/ms/icons/red-dot.png;-54.8293055555556;-10.6867777777778;5106190;Nova Santa Helena;MT
"Mineradora: EDIMILSON ALVES PEREIRA 
Barragem: Santa Helena";http://maps.google.com/mapfiles/ms/icons/red-dot.png;-55.1861555555556;-10.8024861111111;5106190;Nova Santa Helena;MT
"Mineradora: NX GOLD S A Filial: NX GOLD SA 
Barragem: POND 1 - BARRAGEM DE LIXIVIAÇÃO";http://maps.google.com/mapfiles/ms/icons/yellow-dot.png;-52.4969444444444;-14.64075;5106257;Nova Xavantina;MT
"Mineradora: NX GOLD S A Filial: NX GOLD SA 
Barragem: POND 2 - BARRAGEM DE FLOTAÇÃO";http://maps.google.com/mapfiles/ms/icons/yellow-dot.png;-52.5013319444444;-14.6391938888889;5106257;Nova Xavantina;MT
"Mineradora: NX GOLD S A Filial: NX GOLD SA 
Barragem: POND 3 - BARRAGEM DE FLOTAÇÃO";http://maps.google.com/mapfiles/ms/icons/yellow-dot.png;-52.5010238888889;-14.6402988888889;5106257;Nova Xavantina;MT
"Mineradora: Alta Floresta Gold Mineração Ltda. 
Barragem: Alvo Crente";http://maps.google.com/mapfiles/ms/icons/red-dot.png;-56.5644444444444;-9.37968055555556;5106299;Paranaíta;MT
"Mineradora: ADÃO AFONSO RODUÍ 
Barragem: ADÃO RODUÍ";http://maps.google.com/mapfiles/ms/icons/red-dot.png;-56.6524027777778;-16.2348833333333;5106505;Poconé;MT
"Mineradora: ADÃO AFONSO RODUÍ 
Barragem: RODUÍ II";http://maps.google.com/mapfiles/ms/icons/red-dot.png;-56.6526027777778;-16.2390611111111;5106505;Poconé;MT
"Mineradora: Airton Luiz Carus 
Barragem: GAÚCHO";http://maps.google.com/mapfiles/ms/icons/red-dot.png;-56.5943888888889;-16.2475555555556;5106505;Poconé;MT
"Mineradora: Alain Stephane Riviere Mineração 
Barragem: Alain II";http://maps.google.com/mapfiles/ms/icons/red-dot.png;-56.6152777777778;-16255;5106505;Poconé;MT
"Mineradora: COOPERATIVA DE EXTRAÇÃO MINERAL DE MATO GROSSO 
Barragem: Grameiro";http://maps.google.com/mapfiles/ms/icons/red-dot.png;-56.5645266666667;-16.0676255555556;5106505;Poconé;MT
"Mineradora: Elisa Maciel Santos 
Barragem: JOAO PAULO";http://maps.google.com/mapfiles/ms/icons/yellow-dot.png;-56.6054166666667;-16.2487666666667;5106505;Poconé;MT
"Mineradora: Evaldino Rodui 
Barragem: BACIA DE REJEITOS BOM JARDIM";http://maps.google.com/mapfiles/ms/icons/red-dot.png;-56.5991388888889;-16.2506111111111;5106505;Poconé;MT
"Mineradora: EVANDRO DE SOUZA 
Barragem: COQUEIRAL";http://maps.google.com/mapfiles/ms/icons/yellow-dot.png;-56.548275;-16.0502527777778;5106505;Poconé;MT
"Mineradora: Francismar Cristiano Lima Formiga 
Barragem: BACIA DE REJEITOS SÃO BENTO";http://maps.google.com/mapfiles/ms/icons/red-dot.png;-56.5943611111111;-16.2579722222222;5106505;Poconé;MT
"Mineradora: Frederico Augusto de Arruda Gimenez Me 
Barragem: FRED";http://maps.google.com/mapfiles/ms/icons/red-dot.png;-56.5619277777778;-16.0629277777778;5106505;Poconé;MT
"Mineradora: Gonçalo Pedroso de Barros 
Barragem: GONÇA";http://maps.google.com/mapfiles/ms/icons/yellow-dot.png;-56.6096944444444;-16.2346833333333;5106505;Poconé;MT
"Mineradora: ISMAEL LEDOVINO DE ARRUDA 
Barragem: BR ISMAEL";http://maps.google.com/mapfiles/ms/icons/yellow-dot.png;-56.5892805555556;-16.2455361111111;5106505;Poconé;MT
"Mineradora: João Gimenes Rodrigues 
Barragem: OURINHOS I";http://maps.google.com/mapfiles/ms/icons/red-dot.png;-56.5877222222222;-16.1199444444444;5106505;Poconé;MT
"Mineradora: Jonas Gimenez Rodrigues 
Barragem: CANGAS";http://maps.google.com/mapfiles/ms/icons/red-dot.png;-56.5739666666667;-16.1108555555556;5106505;Poconé;MT
"Mineradora: José João de Pinho Novo 
Barragem: Barragem 1";http://maps.google.com/mapfiles/ms/icons/yellow-dot.png;-56.5638888888889;-16.0841;5106505;Poconé;MT
"Mineradora: José Vicente Nunes Rondon 
Barragem: LU";http://maps.google.com/mapfiles/ms/icons/red-dot.png;-56.6048666666667;-16.2413638888889;5106505;Poconé;MT
"Mineradora: Lysander Lima de França 
Barragem: OURO FINO";http://maps.google.com/mapfiles/ms/icons/yellow-dot.png;-56.6522861111111;-16.3125027777778;5106505;Poconé;MT
"Mineradora: Mineração Tereza Botas Ltda. 
Barragem: CF - Leste";http://maps.google.com/mapfiles/ms/icons/red-dot.png;-56.6043055555556;-16.2158333333333;5106505;Poconé;MT
"Mineradora: Mineração Tereza Botas Ltda. 
Barragem: CF - Oeste";http://maps.google.com/mapfiles/ms/icons/red-dot.png;-56.6059444444444;-16.2144166666667;5106505;Poconé;MT
"Mineradora: Moacyr de Campos 
Barragem: CAMPOS";http://maps.google.com/mapfiles/ms/icons/red-dot.png;-56.5991916666667;-16.1815194444444;5106505;Poconé;MT
"Mineradora: NORAIR NELSON DE SOUZA 
Barragem: CHICO";http://maps.google.com/mapfiles/ms/icons/red-dot.png;-56.6515333333333;-16.2948527777778;5106505;Poconé;MT
"Mineradora: ROBERTO NUNES RONDON 
Barragem: RONDON";http://maps.google.com/mapfiles/ms/icons/yellow-dot.png;-56.6507555555556;-16.2924;5106505;Poconé;MT
"Mineradora: Rodrigo Marcos Volpato 
Barragem: Tarumã";http://maps.google.com/mapfiles/ms/icons/yellow-dot.png;-56.6099333333333;-16.2202055555556;5106505;Poconé;MT
"Mineradora: SÉRGIO DE FRANÇA 
Barragem: OREGON";http://maps.google.com/mapfiles/ms/icons/red-dot.png;-56.63725;-16.2743611111111;5106505;Poconé;MT
"Mineradora: Sidnei Rafael de Souza 
Barragem: BOM PASTOR";http://maps.google.com/mapfiles/ms/icons/red-dot.png;-56.5734444444444;-16.0973611111111;5106505;Poconé;MT
"Mineradora: Sidnei Rafael de Souza 
Barragem: MARANATA";http://maps.google.com/mapfiles/ms/icons/red-dot.png;-56.5376388888889;-16.0379166666667;5106505;Poconé;MT
"Mineradora: Sidnei Rafael de Souza 
Barragem: MARANATA II";http://maps.google.com/mapfiles/ms/icons/red-dot.png;-56.5378611111111;-16.0341666666667;5106505;Poconé;MT
"Mineradora: Ulisses José Dorileo 
Barragem: Barragem AFGM GP2";http://maps.google.com/mapfiles/ms/icons/yellow-dot.png;-56.7513677777778;-16.3074208333333;5106505;Poconé;MT
"Mineradora: Valdemir Carlos de Souza 
Barragem: Barragem Jatobá";http://maps.google.com/mapfiles/ms/icons/red-dot.png;-56.6281975;-16.3028277777778;5106505;Poconé;MT
"Mineradora: Valdinei Mauro de Souza 
Barragem: Barragem de Rejeito 1";http://maps.google.com/mapfiles/ms/icons/yellow-dot.png;-56.7206105555556;-16.3051361111111;5106505;Poconé;MT
"Mineradora: Valdinei Mauro de Souza 
Barragem: BARRAGEM T01";http://maps.google.com/mapfiles/ms/icons/yellow-dot.png;-56.7119722222222;-16.29075;5106505;Poconé;MT
"Mineradora: Valdinei Mauro de Souza 
Barragem: Barragem T05";http://maps.google.com/mapfiles/ms/icons/red-dot.png;-56.6966055555555;-16.274075;5106505;Poconé;MT
"Mineradora: Valdinei Mauro de Souza 
Barragem: Barragem T06";http://maps.google.com/mapfiles/ms/icons/red-dot.png;-56.73295;-16.3001638888889;5106505;Poconé;MT
"Mineradora: Valdinei Mauro de Souza 
Barragem: SANDRO GOMES";http://maps.google.com/mapfiles/ms/icons/yellow-dot.png;-56.7256166666667;-16.2951527777778;5106505;Poconé;MT
"Mineradora: Cooperativa de Mineração dos Garimpeiros de Pontes e Lacerda 
Barragem: Berion";http://maps.google.com/mapfiles/ms/icons/red-dot.png;-59.3716111111111;-15.1326833333333;5106752;Pontes e Lacerda;MT
"Mineradora: Cooperativa de Mineração dos Garimpeiros de Pontes e Lacerda 
Barragem: Campos";http://maps.google.com/mapfiles/ms/icons/red-dot.png;-59.3769583333333;-15.1354361111111;5106752;Pontes e Lacerda;MT
"Mineradora: Cooperativa de Mineração dos Garimpeiros de Pontes e Lacerda 
Barragem: Elvo 1";http://maps.google.com/mapfiles/ms/icons/red-dot.png;-59.3791611111111;-15.1350916666667;5106752;Pontes e Lacerda;MT
"Mineradora: MARCOS JOSE MARTINS FERNANDES 
Barragem: Fortuna";http://maps.google.com/mapfiles/ms/icons/red-dot.png;-59.3451527777778;-15.1814333333333;5106752;Pontes e Lacerda;MT
"Mineradora: Mineração Apoena S A 
Barragem: Barragem EPP";http://maps.google.com/mapfiles/ms/icons/yellow-dot.png;-59.2567816666667;-15.3473458333333;5106752;Pontes e Lacerda;MT
"Mineradora: PROMETÁLICA MINERAÇÃO LTDA 
Barragem: Planta";http://maps.google.com/mapfiles/ms/icons/yellow-dot.png;-58.14525;-15.3961944444444;5107206;Rio Branco;MT
"Mineradora: Marcir Norberto Weber 
Barragem: MINERAÇÃO VALE DOURADO";http://maps.google.com/mapfiles/ms/icons/red-dot.png;-56.5737222222222;-14.8505833333333;5107701;Rosário Oeste;MT
"Mineradora: Marcir Norberto Weber 
Barragem: VALE DOURADO";http://maps.google.com/mapfiles/ms/icons/red-dot.png;-56.5737222222222;-14.8505833333333;5107701;Rosário Oeste;MT
"Mineradora: RIDALECIO DE SOUZA 
Barragem: BARRAGEM ÁGUA BRANCA";http://maps.google.com/mapfiles/ms/icons/red-dot.png;-56.5730277777778;-14.8791388888889;5107701;Rosário Oeste;MT
"Mineradora: Nagella Chrissie Firmino Bravo 
Barragem: BRAVO 1";http://maps.google.com/mapfiles/ms/icons/yellow-dot.png;-56.4608958333333;-15.4665138888889;5108402;Várzea Grande;MT
"Mineradora: Mineração Apoena S A 
Barragem: Cabeceiras";http://maps.google.com/mapfiles/ms/icons/yellow-dot.png;-59.6690911111111;-14.8359880555556;5105507;Vila Bela da Santíssima Trindade;MT
"Mineradora: Mineração Apoena S A 
Barragem: Casarão";http://maps.google.com/mapfiles/ms/icons/yellow-dot.png;-59.6544686111111;-14.8524158333333;5105507;Vila Bela da Santíssima Trindade;MT
"Mineradora: Mineração Apoena S A 
Barragem: Dique de Finos";http://maps.google.com/mapfiles/ms/icons/yellow-dot.png;-59.6575833333333;-14.8395277777778;5105507;Vila Bela da Santíssima Trindade;MT
"Mineradora: Cadam S.a. 
Barragem: Barragem do Mirante I e II";http://maps.google.com/mapfiles/ms/icons/yellow-dot.png;-52.4418055555556;-0.897611111111111;1500503;Almeirim;PA
"Mineradora: Cadam S.a. 
Barragem: LAGOA FACEL 3";http://maps.google.com/mapfiles/ms/icons/red-dot.png;-52.4324627777778;-0.911115833333333;1500503;Almeirim;PA
"Mineradora: Cadam S.a. 
Barragem: LAGOA FACEL 4";http://maps.google.com/mapfiles/ms/icons/red-dot.png;-52.4286858333333;-0.914569722222222;1500503;Almeirim;PA
"Mineradora: Imerys, Rio Capim Caulim S A 
Barragem: Bacia 1 A";http://maps.google.com/mapfiles/ms/icons/yellow-dot.png;-48.7505;-1.57416666666667;1501303;Barcarena;PA
"Mineradora: Imerys, Rio Capim Caulim S A 
Barragem: Bacia 1 B";http://maps.google.com/mapfiles/ms/icons/yellow-dot.png;-48.7505;-1.57416666666667;1501303;Barcarena;PA
"Mineradora: Imerys, Rio Capim Caulim S A 
Barragem: Bacia 2";http://maps.google.com/mapfiles/ms/icons/yellow-dot.png;-48.7555555555556;-1.57305555555556;1501303;Barcarena;PA
"Mineradora: Imerys, Rio Capim Caulim S A 
Barragem: Bacia 3";http://maps.google.com/mapfiles/ms/icons/yellow-dot.png;-48.7570277777778;-1.57061111111111;1501303;Barcarena;PA
"Mineradora: Imerys, Rio Capim Caulim S A 
Barragem: Bacia 5 A";http://maps.google.com/mapfiles/ms/icons/yellow-dot.png;-48749;-1.58375;1501303;Barcarena;PA
"Mineradora: Imerys, Rio Capim Caulim S A 
Barragem: Bacia 5 B";http://maps.google.com/mapfiles/ms/icons/yellow-dot.png;-48.7489166666667;-1584;1501303;Barcarena;PA
"Mineradora: Imerys, Rio Capim Caulim S A 
Barragem: Bacia 5 C";http://maps.google.com/mapfiles/ms/icons/yellow-dot.png;-48.7489166666667;-1584;1501303;Barcarena;PA
"Mineradora: Imerys, Rio Capim Caulim S A 
Barragem: Bacia 6 A";http://maps.google.com/mapfiles/ms/icons/yellow-dot.png;-48.7470555555556;-1.58277777777778;1501303;Barcarena;PA
"Mineradora: Imerys, Rio Capim Caulim S A 
Barragem: Bacia B 1";http://maps.google.com/mapfiles/ms/icons/yellow-dot.png;-48.7756111111111;-1.57605555555556;1501303;Barcarena;PA
"Mineradora: Imerys, Rio Capim Caulim S A 
Barragem: Bacia B 4";http://maps.google.com/mapfiles/ms/icons/yellow-dot.png;-48.7755555555555;-1.5775;1501303;Barcarena;PA
"Mineradora: Imerys, Rio Capim Caulim S A 
Barragem: Bacia de Segurança";http://maps.google.com/mapfiles/ms/icons/yellow-dot.png;-48.7470555555556;-1.58277777777778;1501303;Barcarena;PA
"Mineradora: Vale S A Filial: Vale Mina Sossego 
Barragem: BARRAGEM DO SOSSEGO";http://maps.google.com/mapfiles/ms/icons/yellow-dot.png;-50.0701538888889;-6.42910888888889;1502152;Canaã dos Carajás;PA
"Mineradora: Vale S A Filial: Vale Mina Sossego 
Barragem: CSO1";http://maps.google.com/mapfiles/ms/icons/red-dot.png;-50.0441666666667;-6.40802777777778;1502152;Canaã dos Carajás;PA
"Mineradora: Vale S A Filial: Vale Mina Sossego 
Barragem: PN - 1";http://maps.google.com/mapfiles/ms/icons/red-dot.png;-50.0571111111111;-6.40572222222222;1502152;Canaã dos Carajás;PA
"Mineradora: Vale S A Filial: Vale Mina Sossego 
Barragem: PN - 3";http://maps.google.com/mapfiles/ms/icons/red-dot.png;-50.0754088888889;-6.40259472222222;1502152;Canaã dos Carajás;PA
"Mineradora: Vale S A Filial: Vale Mina Sossego 
Barragem: PN - 4";http://maps.google.com/mapfiles/ms/icons/red-dot.png;-50.0332527777778;-6.41151694444445;1502152;Canaã dos Carajás;PA
"Mineradora: Vale S A Filial: Vale Mina Sossego 
Barragem: PN - 6";http://maps.google.com/mapfiles/ms/icons/red-dot.png;-50.0842008333333;-6.40599388888889;1502152;Canaã dos Carajás;PA
"Mineradora: Vale S A Filial: Vale Mina Sossego 
Barragem: PN -5";http://maps.google.com/mapfiles/ms/icons/red-dot.png;-50.0360908333333;-6.42138472222222;1502152;Canaã dos Carajás;PA
"Mineradora: Vale S A Filial: Vale Mina Sossego 
Barragem: PS -1";http://maps.google.com/mapfiles/ms/icons/red-dot.png;-50.0483611111111;-6.43386111111111;1502152;Canaã dos Carajás;PA
"Mineradora: Vale S A Filial: Vale Serra Sul 
Barragem: 1 Mina";http://maps.google.com/mapfiles/ms/icons/red-dot.png;-50.3401388888889;-6.39938888888889;1502152;Canaã dos Carajás;PA
"Mineradora: Vale S A Filial: Vale Serra Sul 
Barragem: 1 Usina";http://maps.google.com/mapfiles/ms/icons/red-dot.png;-50.22875;-6.45491666666667;1502152;Canaã dos Carajás;PA
"Mineradora: Vale S A Filial: Vale Serra Sul 
Barragem: 3 Mina";http://maps.google.com/mapfiles/ms/icons/red-dot.png;-50.3198055555556;-6.39441666666667;1502152;Canaã dos Carajás;PA
"Mineradora: Vale S A Filial: Vale Serra Sul 
Barragem: Bacia C Usina";http://maps.google.com/mapfiles/ms/icons/red-dot.png;-50.2358055555556;-6439;1502152;Canaã dos Carajás;PA
"Mineradora: Vale S A Filial: Vale Serra Sul 
Barragem: Sul Pilha";http://maps.google.com/mapfiles/ms/icons/red-dot.png;-50.3213611111111;-6.47822222222222;1502152;Canaã dos Carajás;PA
"Mineradora: Avb Mineração Ltda. 
Barragem: Barragem Antas Norte";http://maps.google.com/mapfiles/ms/icons/yellow-dot.png;-49.7664527777778;-6.23612222222222;1502772;Curionópolis;PA
"Mineradora: Avb Mineração Ltda. 
Barragem: Dique de Finos I";http://maps.google.com/mapfiles/ms/icons/red-dot.png;-49.7465663888889;-6.24799416666667;1502772;Curionópolis;PA
"Mineradora: Avb Mineração Ltda. 
Barragem: Dique de Finos II";http://maps.google.com/mapfiles/ms/icons/red-dot.png;-49.7446638888889;-6.24496527777778;1502772;Curionópolis;PA
"Mineradora: Serra Pelada Companhia de Desenvolvimento Mineral 
Barragem: Barragem de Rejeitos";http://maps.google.com/mapfiles/ms/icons/red-dot.png;-49.6731388888889;-5.93391666666667;1502772;Curionópolis;PA
"Mineradora: Pará Pigmentos S A 
Barragem: Bacia B 1";http://maps.google.com/mapfiles/ms/icons/yellow-dot.png;-47.9085555555556;-2.83547222222222;1503457;Ipixuna do Pará;PA
"Mineradora: Pará Pigmentos S A 
Barragem: Bacia de Controle Ambiental";http://maps.google.com/mapfiles/ms/icons/yellow-dot.png;-47.9065;-2.82072222222222;1503457;Ipixuna do Pará;PA
"Mineradora: Pará Pigmentos S A 
Barragem: Deposito de Rejeito R4";http://maps.google.com/mapfiles/ms/icons/yellow-dot.png;-47.893555;-2.82063194444444;1503457;Ipixuna do Pará;PA
"Mineradora: Serabi Mineração S.a. 
Barragem: Bacia 17";http://maps.google.com/mapfiles/ms/icons/yellow-dot.png;-55.7863555555556;-6.32509444444444;1503606;Itaituba;PA
"Mineradora: Serabi Mineração S.a. 
Barragem: BACIA DE REJEITOS 14/15";http://maps.google.com/mapfiles/ms/icons/yellow-dot.png;-55.7878611111111;-6.32455555555556;1503606;Itaituba;PA
"Mineradora: Serabi Mineração S.a. 
Barragem: BACIA DE REJEITOS 16";http://maps.google.com/mapfiles/ms/icons/yellow-dot.png;-55.7845;-6.32508333333333;1503606;Itaituba;PA
"Mineradora: Valdinei Mauro de Souza 
Barragem: Maney Mineração";http://maps.google.com/mapfiles/ms/icons/red-dot.png;-56.6081108333333;-6.78889055555556;1503606;Itaituba;PA
"Mineradora: Alcoa World Alumina Brasil Ltda. 
Barragem: Lagoa de Disposição n°04 - LD4";http://maps.google.com/mapfiles/ms/icons/red-dot.png;-56.1781388888889;-2.48669444444444;1503903;Juruti;PA
"Mineradora: Alcoa World Alumina Brasil Ltda. 
Barragem: Lagoa de Disposição n°05 - LD5";http://maps.google.com/mapfiles/ms/icons/yellow-dot.png;-56196;-2.48625;1503903;Juruti;PA
"Mineradora: Alcoa World Alumina Brasil Ltda. 
Barragem: LD1 - Lagoa de Disposição 01";http://maps.google.com/mapfiles/ms/icons/yellow-dot.png;-56.1668055555556;-2.50069444444444;1503903;Juruti;PA
"Mineradora: Alcoa World Alumina Brasil Ltda. 
Barragem: LD2 - Lagoa de Disposição 02";http://maps.google.com/mapfiles/ms/icons/yellow-dot.png;-56.1738055555556;-2.49661111111111;1503903;Juruti;PA
"Mineradora: Alcoa World Alumina Brasil Ltda. 
Barragem: LD3 - Lagoa de Disposição 03";http://maps.google.com/mapfiles/ms/icons/yellow-dot.png;-56.1880111111111;-2.49588888888889;1503903;Juruti;PA
"Mineradora: Alcoa World Alumina Brasil Ltda. 
Barragem: LD6 - Lagoa de Disposição 6";http://maps.google.com/mapfiles/ms/icons/red-dot.png;-56.1730555555555;-2.48694444444444;1503903;Juruti;PA
"Mineradora: Alcoa World Alumina Brasil Ltda. 
Barragem: LD7 - Lagoa de Disposição 7";http://maps.google.com/mapfiles/ms/icons/red-dot.png;-56.2018333333333;-2.48402777777778;1503903;Juruti;PA
"Mineradora: Alcoa World Alumina Brasil Ltda. 
Barragem: LE - Lagoa de Espessamento";http://maps.google.com/mapfiles/ms/icons/yellow-dot.png;-56.1757777777778;-2505;1503903;Juruti;PA
"Mineradora: Buritirama Manganês S A 
Barragem: Barragem do Bandeira";http://maps.google.com/mapfiles/ms/icons/yellow-dot.png;-50.2225;-5.5125;1504208;Marabá;PA
"Mineradora: Salobo Metais Sa. 
Barragem: BARRAGEM DE CAPTAÇÃO";http://maps.google.com/mapfiles/ms/icons/yellow-dot.png;-50.5030858333333;-5.79874583333333;1504208;Marabá;PA
"Mineradora: Salobo Metais Sa. 
Barragem: BARRAGEM DE FINOS II";http://maps.google.com/mapfiles/ms/icons/yellow-dot.png;-50.4914166666667;-5.82397222222222;1504208;Marabá;PA
"Mineradora: Salobo Metais Sa. 
Barragem: BARRAGEM DE REJEITOS";http://maps.google.com/mapfiles/ms/icons/yellow-dot.png;-50.5229166666667;-5778;1504208;Marabá;PA
"Mineradora: Salobo Metais Sa. 
Barragem: DIQUE DE FINOS I";http://maps.google.com/mapfiles/ms/icons/yellow-dot.png;-50.5671688888889;-5.81726;1504208;Marabá;PA
"Mineradora: Salobo Metais Sa. 
Barragem: DIQUE DE FINOS II";http://maps.google.com/mapfiles/ms/icons/yellow-dot.png;-50.5411111111111;-5.83261111111111;1504208;Marabá;PA
"Mineradora: Salobo Metais Sa. 
Barragem: DIQUE DE FINOS III";http://maps.google.com/mapfiles/ms/icons/yellow-dot.png;-50.5386388888889;-5.77963888888889;1504208;Marabá;PA
"Mineradora: Mineracao Rio do Norte S A 
Barragem: Barragem A1";http://maps.google.com/mapfiles/ms/icons/red-dot.png;-56.38575;-1.47191666666667;1505304;Oriximiná;PA
"Mineradora: Mineracao Rio do Norte S A 
Barragem: Barragem Água Fria";http://maps.google.com/mapfiles/ms/icons/red-dot.png;-56.3906666666667;-1.46580555555556;1505304;Oriximiná;PA
"Mineradora: Mineracao Rio do Norte S A 
Barragem: SP1";http://maps.google.com/mapfiles/ms/icons/yellow-dot.png;-56.4181666666667;-1.68291666666667;1505304;Oriximiná;PA
"Mineradora: Mineracao Rio do Norte S A 
Barragem: SP10";http://maps.google.com/mapfiles/ms/icons/yellow-dot.png;-56.4526666666667;-1.6835;1505304;Oriximiná;PA
"Mineradora: Mineracao Rio do Norte S A 
Barragem: SP11";http://maps.google.com/mapfiles/ms/icons/yellow-dot.png;-56.4632777777778;-1.68263888888889;1505304;Oriximiná;PA
"Mineradora: Mineracao Rio do Norte S A 
Barragem: SP12";http://maps.google.com/mapfiles/ms/icons/yellow-dot.png;-56.46825;-1.68730555555556;1505304;Oriximiná;PA
"Mineradora: Mineracao Rio do Norte S A 
Barragem: SP13";http://maps.google.com/mapfiles/ms/icons/yellow-dot.png;-56.4673055555556;-1.69294444444444;1505304;Oriximiná;PA
"Mineradora: Mineracao Rio do Norte S A 
Barragem: SP14";http://maps.google.com/mapfiles/ms/icons/yellow-dot.png;-56.4702777777778;-1.69875;1505304;Oriximiná;PA
"Mineradora: Mineracao Rio do Norte S A 
Barragem: SP15";http://maps.google.com/mapfiles/ms/icons/yellow-dot.png;-56.4754166666667;-1.69988888888889;1505304;Oriximiná;PA
"Mineradora: Mineracao Rio do Norte S A 
Barragem: SP16";http://maps.google.com/mapfiles/ms/icons/yellow-dot.png;-56.4761111111111;-1.69388888888889;1505304;Oriximiná;PA
"Mineradora: Mineracao Rio do Norte S A 
Barragem: SP19";http://maps.google.com/mapfiles/ms/icons/yellow-dot.png;-56.4689288888889;-1.68087333333333;1505304;Oriximiná;PA
"Mineradora: Mineracao Rio do Norte S A 
Barragem: SP2_3";http://maps.google.com/mapfiles/ms/icons/yellow-dot.png;-56.4036944444444;-1.68469444444444;1505304;Oriximiná;PA
"Mineradora: Mineracao Rio do Norte S A 
Barragem: SP25";http://maps.google.com/mapfiles/ms/icons/red-dot.png;-56.4910305555556;-1.67121944444444;1505304;Oriximiná;PA
"Mineradora: Mineracao Rio do Norte S A 
Barragem: SP4 Norte";http://maps.google.com/mapfiles/ms/icons/yellow-dot.png;-56.4270555555556;-1.68480555555556;1505304;Oriximiná;PA
"Mineradora: Mineracao Rio do Norte S A 
Barragem: SP4 Sul";http://maps.google.com/mapfiles/ms/icons/yellow-dot.png;-56.4269722222222;-1.69061111111111;1505304;Oriximiná;PA
"Mineradora: Mineracao Rio do Norte S A 
Barragem: SP5 Leste";http://maps.google.com/mapfiles/ms/icons/yellow-dot.png;-56.4354166666667;-1.68269444444444;1505304;Oriximiná;PA
"Mineradora: Mineracao Rio do Norte S A 
Barragem: SP5 Oeste";http://maps.google.com/mapfiles/ms/icons/yellow-dot.png;-56.4445555555556;-1.68283333333333;1505304;Oriximiná;PA
"Mineradora: Mineracao Rio do Norte S A 
Barragem: SP6";http://maps.google.com/mapfiles/ms/icons/yellow-dot.png;-56.4242777777778;-1.67633333333333;1505304;Oriximiná;PA
"Mineradora: Mineracao Rio do Norte S A 
Barragem: SP7A";http://maps.google.com/mapfiles/ms/icons/yellow-dot.png;-56.4341944444445;-1.67155555555556;1505304;Oriximiná;PA
"Mineradora: Mineracao Rio do Norte S A 
Barragem: SP7B";http://maps.google.com/mapfiles/ms/icons/yellow-dot.png;-56.4400833333333;-1.66972222222222;1505304;Oriximiná;PA
"Mineradora: Mineracao Rio do Norte S A 
Barragem: SP7C";http://maps.google.com/mapfiles/ms/icons/yellow-dot.png;-56.4448888888889;-1.66969444444444;1505304;Oriximiná;PA
"Mineradora: Mineracao Rio do Norte S A 
Barragem: SP8";http://maps.google.com/mapfiles/ms/icons/yellow-dot.png;-56.4528055555556;-1.67347222222222;1505304;Oriximiná;PA
"Mineradora: Mineracao Rio do Norte S A 
Barragem: SP9";http://maps.google.com/mapfiles/ms/icons/yellow-dot.png;-56.4609166666667;-1.67491666666667;1505304;Oriximiná;PA
"Mineradora: Mineracao Rio do Norte S A 
Barragem: SP9A";http://maps.google.com/mapfiles/ms/icons/yellow-dot.png;-56.46225;-1.66852777777778;1505304;Oriximiná;PA
"Mineradora: Mineracao Rio do Norte S A 
Barragem: TP1";http://maps.google.com/mapfiles/ms/icons/yellow-dot.png;-56.4110833333333;-1.68177777777778;1505304;Oriximiná;PA
"Mineradora: Mineracao Rio do Norte S A 
Barragem: TP2";http://maps.google.com/mapfiles/ms/icons/yellow-dot.png;-56438;-1.6765;1505304;Oriximiná;PA
"Mineradora: Mineracao Rio do Norte S A 
Barragem: TP3";http://maps.google.com/mapfiles/ms/icons/yellow-dot.png;-56.4725;-1.68777777777778;1505304;Oriximiná;PA
"Mineradora: Vale S A Filial: Vale Minas MOP 
Barragem: Igarapé";http://maps.google.com/mapfiles/ms/icons/red-dot.png;-51.09;-6.59;1505437;Ourilândia do Norte;PA
"Mineradora: Vale S A Filial: Vale Minas MOP 
Barragem: Usina";http://maps.google.com/mapfiles/ms/icons/red-dot.png;-51.0770833333333;-6.58047222222222;1505437;Ourilândia do Norte;PA
"Mineradora: Mineração Paragominas S A Filial: Mineração Paragominas S.A. 
Barragem: B1";http://maps.google.com/mapfiles/ms/icons/yellow-dot.png;-47.7531019444444;-3.26527388888889;1505502;Paragominas;PA
"Mineradora: Mineração Paragominas S A Filial: Mineração Paragominas S.A. 
Barragem: B5";http://maps.google.com/mapfiles/ms/icons/yellow-dot.png;-47.7363888888889;-3275;1505502;Paragominas;PA
"Mineradora: Mineração Paragominas S A Filial: Mineração Paragominas S.A. 
Barragem: B6";http://maps.google.com/mapfiles/ms/icons/yellow-dot.png;-47.7581930555556;-3.25949444444444;1505502;Paragominas;PA
"Mineradora: Mineração Paragominas S.A. 
Barragem: RP1";http://maps.google.com/mapfiles/ms/icons/yellow-dot.png;-47.7211722222222;-3.26484444444444;1505502;Paragominas;PA
"Mineradora: Vale Manganês do Azul 
Barragem: PDE02";http://maps.google.com/mapfiles/ms/icons/red-dot.png;-50.3180358333333;-6.10750694444444;1505536;Parauapebas;PA
"Mineradora: Vale Minas Gerais 
Barragem: Barragem de Água do Igarapé Bahia";http://maps.google.com/mapfiles/ms/icons/red-dot.png;-50.5519388888889;-6.02904888888889;1505536;Parauapebas;PA
"Mineradora: Vale Minas MOP 
Barragem: Dique do Puma 01";http://maps.google.com/mapfiles/ms/icons/red-dot.png;-51.0775277777778;-6.48525;1505536;Parauapebas;PA
"Mineradora: Vale S A Filial: Vale Carajas 
Barragem: Estéril Sul";http://maps.google.com/mapfiles/ms/icons/yellow-dot.png;-50.1625;-6.09944444444444;1505536;Parauapebas;PA
"Mineradora: Vale S A Filial: Vale Carajas 
Barragem: Geladinho";http://maps.google.com/mapfiles/ms/icons/yellow-dot.png;-50.1094722222222;-5.99477777777778;1505536;Parauapebas;PA
"Mineradora: Vale S A Filial: Vale Carajas 
Barragem: Gelado";http://maps.google.com/mapfiles/ms/icons/yellow-dot.png;-50.1414166666667;-5.97927777777778;1505536;Parauapebas;PA
"Mineradora: Vale S A Filial: Vale Carajas 
Barragem: Jacaré";http://maps.google.com/mapfiles/ms/icons/yellow-dot.png;-50.1690555555556;-6.10813888888889;1505536;Parauapebas;PA
"Mineradora: Vale S A Filial: Vale Carajas 
Barragem: Pera Jusante";http://maps.google.com/mapfiles/ms/icons/yellow-dot.png;-50.1429166666667;-6.04719444444444;1505536;Parauapebas;PA
"Mineradora: Vale S A Filial: Vale Carajas 
Barragem: Pera Montante";http://maps.google.com/mapfiles/ms/icons/yellow-dot.png;-50.1437777777778;-6.05683333333333;1505536;Parauapebas;PA
"Mineradora: Vale S A Filial: Vale Manganês do Azul 
Barragem: Azul";http://maps.google.com/mapfiles/ms/icons/yellow-dot.png;-50.2914722222222;-6.07813888888889;1505536;Parauapebas;PA
"Mineradora: Vale S A Filial: Vale Manganês do Azul 
Barragem: Kalunga";http://maps.google.com/mapfiles/ms/icons/yellow-dot.png;-50.3083055555555;-6.11252777777778;1505536;Parauapebas;PA
"Mineradora: Vale S A Filial: Vale Minas Gerais 
Barragem: PONDES DE REJEITOS DO IGARAPÉ BAHIA";http://maps.google.com/mapfiles/ms/icons/yellow-dot.png;-50.5748916666667;-6.0555;1505536;Parauapebas;PA
"Mineradora: Cooperativa Mineradora dos Garimpeiros de Ariquemes 
Barragem: BARRAGEM SÃO GERALDO";http://maps.google.com/mapfiles/ms/icons/red-dot.png;-52.2752777777778;-6.11019444444444;1507300;São Félix do Xingu;PA
"Mineradora: Cooperativa Mineradora dos Garimpeiros de Ariquemes 
Barragem: BARRAGEM SAO GERALDO 02";http://maps.google.com/mapfiles/ms/icons/red-dot.png;-52.2551944444444;-6.07577777777778;1507300;São Félix do Xingu;PA
"Mineradora: Vale S A Filial: Vale Minas MOP 
Barragem: Dique 04";http://maps.google.com/mapfiles/ms/icons/red-dot.png;-51.1778288888889;-6.55873777777778;1507300;São Félix do Xingu;PA
"Mineradora: Vale S A Filial: Vale Minas MOP 
Barragem: Dique 05";http://maps.google.com/mapfiles/ms/icons/red-dot.png;-51.1734827777778;-6.55595694444444;1507300;São Félix do Xingu;PA
"Mineradora: Vale S A Filial: Vale Minas MOP 
Barragem: Dique 06";http://maps.google.com/mapfiles/ms/icons/red-dot.png;-51.1741666666667;-6.58036111111111;1507300;São Félix do Xingu;PA
"Mineradora: Vale S A Filial: Vale Minas MOP 
Barragem: Dique Provisorio 01";http://maps.google.com/mapfiles/ms/icons/red-dot.png;-51.1711388888889;-6.56186111111111;1507300;São Félix do Xingu;PA
"Mineradora: Vale S A Filial: Vale Minas MOP 
Barragem: Dique Provisorio 02";http://maps.google.com/mapfiles/ms/icons/red-dot.png;-51.1667222222222;-6.56038888888889;1507300;São Félix do Xingu;PA
"Mineradora: Rozen Mineradora, Consultoria e Assessoria Em Gestão Empresarial Ltda Me 
Barragem: QUIXABA USINA";http://maps.google.com/mapfiles/ms/icons/red-dot.png;-37008;-6.80747222222222;2517100;Várzea;PB
"Mineradora: Ecb Rochas Ornamentais do Brasil Ltda 
Barragem: bonito";http://maps.google.com/mapfiles/ms/icons/red-dot.png;-41.7076666666667;-5.20891666666667;2202604;Castelo do Piauí;PI
"Mineradora: Plinio Almeida Boson 
Barragem: 803.285/2014";http://maps.google.com/mapfiles/ms/icons/red-dot.png;-42.5781111111111;-9.23605555555555;2210359;São Lourenço do Piauí;PI
"Mineradora: MINERACAO TABIPORA LTDA 
Barragem: BARRAGEM SUL OU TANQUE VELHO";http://maps.google.com/mapfiles/ms/icons/yellow-dot.png;-49.6908608333333;-25.3705058333333;4104204;Campo Largo;PR
"Mineradora: Mineração Nossa Senhora do Carmo Ltda 
Barragem: Bacia de Decantação Final No Bota Fora";http://maps.google.com/mapfiles/ms/icons/yellow-dot.png;-49.1877972222222;-24.7485083333333;4105201;Cerro Azul;PR
"Mineradora: Mineração Nossa Senhora do Carmo Ltda 
Barragem: Pinheirinho";http://maps.google.com/mapfiles/ms/icons/yellow-dot.png;-49.1947027777778;-24.7479972222222;4105201;Cerro Azul;PR
"Mineradora: Cimento Tupi S.a. 
Barragem: BARRAGEM DE REJEITOS";http://maps.google.com/mapfiles/ms/icons/yellow-dot.png;-44.2861944444444;-22.4550555555556;3304128;Quatis;RJ
"Mineradora: Anglo American Minério de Ferro Brasil S.a 
Barragem: Pond de Emergência";http://maps.google.com/mapfiles/ms/icons/red-dot.png;-41.0205555555556;-21.8311111111111;3305000;São João da Barra;RJ
"Mineradora: Cooperativa de Garimpeiros de Santa Cruz Ltda 
Barragem: Belíssima";http://maps.google.com/mapfiles/ms/icons/yellow-dot.png;-63.5596858333333;-9.79279083333333;1100023;Ariquemes;RO
"Mineradora: Cooperativa de Garimpeiros de Santa Cruz Ltda 
Barragem: Igarapé Mutum";http://maps.google.com/mapfiles/ms/icons/yellow-dot.png;-63.5200308333333;-9.76540694444444;1100023;Ariquemes;RO
"Mineradora: Cooperativa de Garimpeiros de Santa Cruz Ltda 
Barragem: Jacaré Inferior";http://maps.google.com/mapfiles/ms/icons/yellow-dot.png;-63.5751666666667;-9.78780555555556;1100023;Ariquemes;RO
"Mineradora: Cooperativa de Garimpeiros de Santa Cruz Ltda 
Barragem: Jacaré Medio";http://maps.google.com/mapfiles/ms/icons/yellow-dot.png;-63.5652777777778;-9.7955;1100023;Ariquemes;RO
"Mineradora: Cooperativa de Garimpeiros de Santa Cruz Ltda 
Barragem: Jacaré Superior";http://maps.google.com/mapfiles/ms/icons/yellow-dot.png;-63.5531944444444;-9817;1100023;Ariquemes;RO
"Mineradora: Cooperativa de Garimpeiros de Santa Cruz Ltda 
Barragem: Rio Santa Cruz";http://maps.google.com/mapfiles/ms/icons/yellow-dot.png;-63.5685833333333;-9.76586111111111;1100023;Ariquemes;RO
"Mineradora: Cooperativa Mineradora dos Garimpeiros de Ariquemes 
Barragem: BARRAGEM 01";http://maps.google.com/mapfiles/ms/icons/red-dot.png;-63.6205833333333;-10505;1100700;Campo Novo de Rondônia;RO
"Mineradora: Cooperativa Mineradora dos Garimpeiros de Ariquemes 
Barragem: BARRAGEM TABOQUINHA";http://maps.google.com/mapfiles/ms/icons/red-dot.png;-62.9058888888889;-9.52333333333333;1100940;Cujubim;RO
"Mineradora: Estanho de Rondônia S A 
Barragem: PIT-01";http://maps.google.com/mapfiles/ms/icons/yellow-dot.png;-63076;-9.21605555555555;1101104;Itapuã do Oeste;RO
"Mineradora: Estanho de Rondônia S A 
Barragem: Taboquinha 01 - Crente";http://maps.google.com/mapfiles/ms/icons/yellow-dot.png;-63.0802777777778;-9.19838888888889;1101104;Itapuã do Oeste;RO
"Mineradora: Estanho de Rondônia S A 
Barragem: Taboquinha 02 - Serra Azul";http://maps.google.com/mapfiles/ms/icons/yellow-dot.png;-63.0845555555556;-9.20436111111111;1101104;Itapuã do Oeste;RO
"Mineradora: Estanho de Rondônia S A 
Barragem: Taboquinha 03";http://maps.google.com/mapfiles/ms/icons/yellow-dot.png;-63.0836208333333;-9.20554277777778;1101104;Itapuã do Oeste;RO
"Mineradora: Estanho de Rondônia S A 
Barragem: Taboquinha 04";http://maps.google.com/mapfiles/ms/icons/yellow-dot.png;-63.0863888888889;-9.21086111111111;1101104;Itapuã do Oeste;RO
"Mineradora: Metalmig Mineração Indústria e Comércio S A 
Barragem: CA01";http://maps.google.com/mapfiles/ms/icons/red-dot.png;-63.0555277777778;-9.43180555555555;1101104;Itapuã do Oeste;RO
"Mineradora: Metalmig Mineração Indústria e Comércio S A 
Barragem: CA02";http://maps.google.com/mapfiles/ms/icons/red-dot.png;-63.0555277777778;-9.43163888888889;1101104;Itapuã do Oeste;RO
"Mineradora: Metalmig Mineração Indústria e Comércio S A 
Barragem: CA03";http://maps.google.com/mapfiles/ms/icons/red-dot.png;-63.0519444444444;-9.45805555555556;1101104;Itapuã do Oeste;RO
"Mineradora: Metalmig Mineração Indústria e Comércio S A 
Barragem: CA04";http://maps.google.com/mapfiles/ms/icons/red-dot.png;-63.0577777777778;-9.43720833333333;1101104;Itapuã do Oeste;RO
"Mineradora: Metalmig Mineração Indústria e Comércio S A 
Barragem: Queimada";http://maps.google.com/mapfiles/ms/icons/red-dot.png;-63.0478888888889;-9.42386111111111;1101104;Itapuã do Oeste;RO
"Mineradora: Metalmig Mineração Indústria e Comércio S A 
Barragem: QUEIMADA02";http://maps.google.com/mapfiles/ms/icons/red-dot.png;-63.0744444444444;-9.46416666666667;1101104;Itapuã do Oeste;RO
"Mineradora: Metalmig Mineração Indústria e Comércio S A 
Barragem: QUEIMADA03";http://maps.google.com/mapfiles/ms/icons/red-dot.png;-63.0755555555556;-9.46138888888889;1101104;Itapuã do Oeste;RO
"Mineradora: Cooperativa Mineradora dos Garimpeiros de Ariquemes 
Barragem: BARRAGEM TARILÂNDIA 01";http://maps.google.com/mapfiles/ms/icons/red-dot.png;-62.8339444444444;-10822;1100114;Jaru;RO
"Mineradora: Metalmig Mineração Indústria e Comércio S A 
Barragem: Barragem Oriente01";http://maps.google.com/mapfiles/ms/icons/red-dot.png;-62.3961111111111;-9.58333333333333;1100130;Machadinho D'Oeste;RO
"Mineradora: Cooperativa Mineradora dos Garimpeiros de Ariquemes 
Barragem: BARRAGEM 339";http://maps.google.com/mapfiles/ms/icons/red-dot.png;-61.6208611111111;-11.1373611111111;1101203;Ministro Andreazza;RO
"Mineradora: Cooperativa Mineradora dos Garimpeiros de Ariquemes 
Barragem: BARRAGEM 341";http://maps.google.com/mapfiles/ms/icons/red-dot.png;-61.6208611111111;-11.1373611111111;1101203;Ministro Andreazza;RO
"Mineradora: Minerais & Metais Comércio e Indústria Ltda Filial: Marcos 
Barragem: RIO BRANCO";http://maps.google.com/mapfiles/ms/icons/red-dot.png;-62.7406388888889;-9.77069444444444;1100262;Rio Crespo;RO
"Mineradora: WHITE SOLDER METALURGIA E MINERAÇÃO LTDA Filial: White Solder Metalurgia e Mineração - Sol Nascente 
Barragem: Reservatório 01";http://maps.google.com/mapfiles/ms/icons/red-dot.png;-63.0608611111111;-9.62227777777778;1100262;Rio Crespo;RO
"Mineradora: Cooperativa Mineradora dos Garimpeiros de Ariquemes 
Barragem: BARRAGEM 02";http://maps.google.com/mapfiles/ms/icons/red-dot.png;-62.4174166666667;-11.16175;1101708;Urupá;RO
"Mineradora: Cooperativa Mineradora dos Garimpeiros de Ariquemes 
Barragem: BARRAGEM URUPA 01";http://maps.google.com/mapfiles/ms/icons/red-dot.png;-62.4375277777778;-11.1354166666667;1101708;Urupá;RO
"Mineradora: Farias e Rodrigues Ltda Me 
Barragem: RESERVATÓRIO 01";http://maps.google.com/mapfiles/ms/icons/red-dot.png;-60.41075;-12.9525;1100304;Vilhena;RO
"Mineradora: Muller & Cia Ltda Me 
Barragem: RESERVATÓRIO 01";http://maps.google.com/mapfiles/ms/icons/red-dot.png;-60.4225833333333;-12.8974444444444;1100304;Vilhena;RO
"Mineradora: Muller & Cia Ltda Me 
Barragem: RESERVATÓRIO 02";http://maps.google.com/mapfiles/ms/icons/red-dot.png;-60.3651111111111;-12.8042222222222;1100304;Vilhena;RO
"Mineradora: Norte Sul TerraplenagemComercio EIRELIMe 
Barragem: RESERVATÓRIO 01";http://maps.google.com/mapfiles/ms/icons/red-dot.png;-60.3495277777778;-12.9325833333333;1100304;Vilhena;RO
"Mineradora: PORTO COMÉRCIO DE AREIA LTDA ME 
Barragem: RESERVATÓRIO 01";http://maps.google.com/mapfiles/ms/icons/red-dot.png;-60.2876388888889;-12.95975;1100304;Vilhena;RO
"Mineradora: Copelmi Mineração Ltda 
Barragem: Bacia de Finos da Mina do Recreio";http://maps.google.com/mapfiles/ms/icons/yellow-dot.png;-52.0037752777778;-30.1456613888889;4302709;Butiá;RS
"Mineradora: Copelmi Mineração Ltda 
Barragem: Bacia de Finos da Mina do Cerro";http://maps.google.com/mapfiles/ms/icons/yellow-dot.png;-53.0437330555555;-30.3862019444444;4303004;Cachoeira do Sul;RS
"Mineradora: Companhia Riograndense de Mineração 
Barragem: P1-1";http://maps.google.com/mapfiles/ms/icons/yellow-dot.png;-52.0519444444444;-30.1310277777778;4312252;Minas do Leão;RS
"Mineradora: Mineração Nova Petrópolis Ltda. 
Barragem: MNP-01";http://maps.google.com/mapfiles/ms/icons/red-dot.png;-51.1916666666667;-29.3466666666667;4313201;Nova Petrópolis;RS
"Mineradora: Companhia Brasileira do Cobre 
Barragem: Barragem CBC";http://maps.google.com/mapfiles/ms/icons/yellow-dot.png;-53.4180416666667;-30.9197777777778;4317004;Santana da Boa Vista;RS
"Mineradora: D & L Mineração Ltda. 
Barragem: VIAMAO";http://maps.google.com/mapfiles/ms/icons/red-dot.png;-50.8210127777778;-30.1678788888889;4323002;Viamão;RS
"Mineradora: Cooperativa de Extração de Carvão Mineral dos Trabalhadores de Criciúma 
Barragem: Santa Líbera";http://maps.google.com/mapfiles/ms/icons/red-dot.png;-49.4258888888889;-28.7385;4205456;Forquilhinha;SC
"Mineradora: Indústria Carbonífera Rio Deserto Ltda 
Barragem: Barragem 101";http://maps.google.com/mapfiles/ms/icons/red-dot.png;-49.2483333333333;-28.7291666666667;4207007;Içara;SC
"Mineradora: Carbonífera Belluno Ltda. 
Barragem: Barragem Lauro Muller";http://maps.google.com/mapfiles/ms/icons/yellow-dot.png;-49.42775;-28.4096111111111;4209607;Lauro Muller;SC
"Mineradora: Carbonífera Belluno Ltda. 
Barragem: Barragem Rio Fiorita";http://maps.google.com/mapfiles/ms/icons/yellow-dot.png;-49.4432152777778;-28.5868519444444;4217600;Siderópolis;SC
"Mineradora: Gabriella Mineração Ltda 
Barragem: BACIA DE DECANTAÇÃO DA USINA RIO FIORITA";http://maps.google.com/mapfiles/ms/icons/yellow-dot.png;-49.4421944444444;-28.5772777777778;4217600;Siderópolis;SC
"Mineradora: CARBONIFERA METROPOLITANA SA 
Barragem: Bacia A";http://maps.google.com/mapfiles/ms/icons/yellow-dot.png;-49.4602777777778;-28.4921111111111;4218350;Treviso;SC
"Mineradora: CARBONIFERA METROPOLITANA SA 
Barragem: Bacia B";http://maps.google.com/mapfiles/ms/icons/yellow-dot.png;-49.4600277777778;-28.4941388888889;4218350;Treviso;SC
"Mineradora: DIOGENES DAMIANI 
Barragem: Bacia de Acumulação A";http://maps.google.com/mapfiles/ms/icons/yellow-dot.png;-49.4511222222222;-28.4830611111111;4218350;Treviso;SC
"Mineradora: DIOGENES DAMIANI 
Barragem: Bacia de Acumulação B";http://maps.google.com/mapfiles/ms/icons/yellow-dot.png;-49.4513277777778;-28.4824416666667;4218350;Treviso;SC
"Mineradora: DIOGENES DAMIANI 
Barragem: Bacia de Lodo";http://maps.google.com/mapfiles/ms/icons/yellow-dot.png;-49.4520861111111;-28.4815027777778;4218350;Treviso;SC
"Mineradora: Indústria Carbonífera Rio Deserto Ltda 
Barragem: Barragem Cruz de Malta";http://maps.google.com/mapfiles/ms/icons/yellow-dot.png;-49.4580555555556;-28.4730555555556;4218350;Treviso;SC
"Mineradora: Carbonífera Siderópolis Ltda. 
Barragem: Bacia de Acumulação 01";http://maps.google.com/mapfiles/ms/icons/yellow-dot.png;-49.3702777777778;-28.4536111111111;4219002;Urussanga;SC
"Mineradora: Carbonífera Siderópolis Ltda. 
Barragem: Bacia de Acumulação de Efluente Tratado";http://maps.google.com/mapfiles/ms/icons/red-dot.png;-49.37055;-28.4564416666667;4219002;Urussanga;SC
"Mineradora: Mosaic Fertilizantes P&K S.A. Filial: Taquari Vassouras 
Barragem: Dique de Contenção de Salmoura";http://maps.google.com/mapfiles/ms/icons/yellow-dot.png;-37.0298333333333;-10.6578055555556;2806107;Rosário do Catete;SE
"Mineradora: Mosaic Fertilizantes P&K S.A. Filial: Taquari Vassouras 
Barragem: Dique de Resíduos Insóluveis ";http://maps.google.com/mapfiles/ms/icons/yellow-dot.png;-37.03125;-10.6573333333333;2806107;Rosário do Catete;SE
"Mineradora: Mosaic Fertilizantes P&K S.A. Filial: Taquari Vassouras 
Barragem: Dique Petrobrás";http://maps.google.com/mapfiles/ms/icons/red-dot.png;-37.0305833333333;-10.6534444444444;2806107;Rosário do Catete;SE
"Mineradora: Mineração Santa Luzia de Aguaí Ltda 
Barragem: TANQUE DE DECANTAÇÃO";http://maps.google.com/mapfiles/ms/icons/red-dot.png;-47.1685833333333;-21.9962222222222;3500303;Aguaí;SP
"Mineradora: Mineração Santa Luzia de Aguaí Ltda 
Barragem: TANQUE DE DECANTAÇÃO 2";http://maps.google.com/mapfiles/ms/icons/red-dot.png;-47.1678055555556;-21.9961666666667;3500303;Aguaí;SP
"Mineradora: Disk Base Extração de Areia e Comercio de Materiais Para Construção Ltda Me 
Barragem: TD2";http://maps.google.com/mapfiles/ms/icons/yellow-dot.png;-47.8293547222222;-23.5795608333333;3500758;Alambari;SP
"Mineradora: Mineração Jundu Ltda. 
Barragem: 12 - AN";http://maps.google.com/mapfiles/ms/icons/red-dot.png;-47.6427913888889;-22.1569575;3502002;Analândia;SP
"Mineradora: Mineração Jundu Ltda. 
Barragem: 13 - AN";http://maps.google.com/mapfiles/ms/icons/red-dot.png;-47.6394513888889;-22.1550208333333;3502002;Analândia;SP
"Mineradora: Concresand Mineração Ltda 
Barragem: TANQUE DE LAMA";http://maps.google.com/mapfiles/ms/icons/red-dot.png;-48.3497222222222;-23.1886111111111;3506904;Bofete;SP
"Mineradora: EXTRAÇÃO E COMÉRCIO DE AREIA BOFETE LTDA 
Barragem: Sedimentação de finos";http://maps.google.com/mapfiles/ms/icons/red-dot.png;-48.2280555555556;-23.1204722222222;3506904;Bofete;SP
"Mineradora: Mineradora Areia Nova Ltda 
Barragem: Conjunto de cavas em desativação recuperação";http://maps.google.com/mapfiles/ms/icons/red-dot.png;-48.3433055555556;-23.1776111111111;3506904;Bofete;SP
"Mineradora: Mineradora Areia Nova Ltda 
Barragem: decantação de finos / reservatorio agua processo";http://maps.google.com/mapfiles/ms/icons/red-dot.png;-48.3465277777778;-23.1781388888889;3506904;Bofete;SP
"Mineradora: Realmix Agregados Minerais Ltda 
Barragem: 1. CONJUNTO DE LEIRAS DE DECANTAÇÃO";http://maps.google.com/mapfiles/ms/icons/red-dot.png;-48.3625;-23.1929444444444;3506904;Bofete;SP
"Mineradora: MINERADORA PEDRIX LTDA 
Barragem: Barramento 1";http://maps.google.com/mapfiles/ms/icons/red-dot.png;-46.7750277777778;-23.3930722222222;3509007;Caieiras;SP
"Mineradora: Mosaic Fertilizantes P&K S.A. Filial: Cajati 
Barragem: Barragem 2";http://maps.google.com/mapfiles/ms/icons/yellow-dot.png;-48.1202777777778;-24.6930555555556;3509254;Cajati;SP
"Mineradora: Mosaic Fertilizantes P&K S.A. Filial: Cajati 
Barragem: Barragem B12";http://maps.google.com/mapfiles/ms/icons/yellow-dot.png;-48.1;-24.7166666666667;3509254;Cajati;SP
"Mineradora: Milton José Aparecido Giuli Me 
Barragem: CAVA";http://maps.google.com/mapfiles/ms/icons/red-dot.png;-47.4823797222222;-23.0082577777778;3510401;Capivari;SP
"Mineradora: Mineração do Vale Ltda 
Barragem: TANQUE DE DECANTAÇÃO";http://maps.google.com/mapfiles/ms/icons/yellow-dot.png;-47.5510833333333;-22.1928055555556;3512704;Corumbataí;SP
"Mineradora: Mineração Descalvado Ltda 
Barragem: MD 01/2012";http://maps.google.com/mapfiles/ms/icons/yellow-dot.png;-47.6182777777778;-21.9557222222222;3513702;Descalvado;SP
"Mineradora: Mineração Descalvado Ltda 
Barragem: MD 05/2016";http://maps.google.com/mapfiles/ms/icons/red-dot.png;-47.6218597222222;-21.9568;3513702;Descalvado;SP
"Mineradora: Mineração Jundu Ltda. 
Barragem: 11 - DES";http://maps.google.com/mapfiles/ms/icons/red-dot.png;-47.6133372222222;-21.9547394444444;3513702;Descalvado;SP
"Mineradora: Mineração Jundu Ltda. 
Barragem: 12 - DES";http://maps.google.com/mapfiles/ms/icons/red-dot.png;-47.6130616666667;-21.9516683333333;3513702;Descalvado;SP
"Mineradora: Extração de Areia e Pedregulho Cachoeira Ltda. 
Barragem: Guará 2";http://maps.google.com/mapfiles/ms/icons/red-dot.png;-46.1363611111111;-23.3923055555556;3518305;Guararema;SP
"Mineradora: Extração de Areia e Pedregulho Cachoeira Ltda. 
Barragem: Guará 3";http://maps.google.com/mapfiles/ms/icons/yellow-dot.png;-46.1353333333333;-23.3890277777778;3518305;Guararema;SP
"Mineradora: Mineração Bom Retiro II EIRELI 
Barragem: MBR II NORTE";http://maps.google.com/mapfiles/ms/icons/red-dot.png;-47.1194444444444;-23.7854166666667;3519709;Ibiúna;SP
"Mineradora: Mineração Bom Retiro II EIRELI 
Barragem: MBR II SUL";http://maps.google.com/mapfiles/ms/icons/yellow-dot.png;-47.1215;-23.7881944444444;3519709;Ibiúna;SP
"Mineradora: Uilson Romanha & Cia Ltda 
Barragem: CHAPADINHA 061";http://maps.google.com/mapfiles/ms/icons/red-dot.png;-48.0056666666667;-23.6590833333333;3522307;Itapetininga;SP
"Mineradora: Uilson Romanha & Cia Ltda 
Barragem: Chapadinha 061 B";http://maps.google.com/mapfiles/ms/icons/red-dot.png;-48.0013988888889;-23.66244;3522307;Itapetininga;SP
"Mineradora: Uilson Romanha & Cia Ltda 
Barragem: CHAPADINHA 221";http://maps.google.com/mapfiles/ms/icons/red-dot.png;-47.9923611111111;-23.6515277777778;3522307;Itapetininga;SP
"Mineradora: MINERAÇÃO BOM RETIRO LTDA. 
Barragem: Barragem 3";http://maps.google.com/mapfiles/ms/icons/red-dot.png;-47.4555555555555;-22.1930555555556;3526704;Leme;SP
"Mineradora: MINERAÇÃO BOM RETIRO LTDA. 
Barragem: Bom Retiro 1";http://maps.google.com/mapfiles/ms/icons/red-dot.png;-47.4544444444444;-22.1927777777778;3526704;Leme;SP
"Mineradora: MINERAÇÃO BOM RETIRO LTDA. 
Barragem: Bom Retiro 2";http://maps.google.com/mapfiles/ms/icons/yellow-dot.png;-47.4569444444444;-22.1888888888889;3526704;Leme;SP
"Mineradora: Dutra Extração de Areia Ltda. 
Barragem: Dutra";http://maps.google.com/mapfiles/ms/icons/red-dot.png;-46.2108888888889;-23.4307222222222;3530607;Mogi das Cruzes;SP
"Mineradora: Embu S.a Engenharia e Comércio 
Barragem: Barragem de Sedimentos da Pedreira Itapeti - BA1";http://maps.google.com/mapfiles/ms/icons/yellow-dot.png;-46.2438888888889;-23.4971666666667;3530607;Mogi das Cruzes;SP
"Mineradora: Embu S.a Engenharia e Comércio 
Barragem: Barragem de Sedimentos da Pedreira Itapeti - BA2";http://maps.google.com/mapfiles/ms/icons/yellow-dot.png;-46.2473333333333;-23.4966388888889;3530607;Mogi das Cruzes;SP
"Mineradora: Empresa de Mineração e Artefatos de Cimento Jbs Ltda Epp 
Barragem: JBS1";http://maps.google.com/mapfiles/ms/icons/yellow-dot.png;-46.1948888888889;-23.3973333333333;3530607;Mogi das Cruzes;SP
"Mineradora: Empresa de Mineração e Artefatos de Cimento Jbs Ltda Epp 
Barragem: JBS2";http://maps.google.com/mapfiles/ms/icons/red-dot.png;-46.1976388888889;-23.3963333333333;3530607;Mogi das Cruzes;SP
"Mineradora: Empresa de Mineração e Artefatos de Cimento Jbs Ltda Epp 
Barragem: JBS3";http://maps.google.com/mapfiles/ms/icons/red-dot.png;-46.2006944444445;-23.3922222222222;3530607;Mogi das Cruzes;SP
"Mineradora: Empresa de Mineração Fiori do Taboão Ltda. 
Barragem: Fiori";http://maps.google.com/mapfiles/ms/icons/red-dot.png;-46.1984722222222;-23.4044444444444;3530607;Mogi das Cruzes;SP
"Mineradora: Empresa de Mineração Horii Ltda. 
Barragem: Sítio Horii";http://maps.google.com/mapfiles/ms/icons/red-dot.png;-46.2475833333333;-23.6210833333333;3530607;Mogi das Cruzes;SP
"Mineradora: Empresa Mineradora Boa Sorte Ltda 
Barragem: Boa Sorte";http://maps.google.com/mapfiles/ms/icons/red-dot.png;-46.2118888888889;-23.4119444444444;3530607;Mogi das Cruzes;SP
"Mineradora: Extração de Areia e Pedregulho Cachoeira Ltda. 
Barragem: CAMC";http://maps.google.com/mapfiles/ms/icons/red-dot.png;-46.2054166666667;-23.4012777777778;3530607;Mogi das Cruzes;SP
"Mineradora: Extração de Areia Taboao Ltda 
Barragem: TABOÃO 01";http://maps.google.com/mapfiles/ms/icons/red-dot.png;-46.2050555555556;-23.3971111111111;3530607;Mogi das Cruzes;SP
"Mineradora: Extração de Areia Taboao Ltda 
Barragem: TABOÃO 02";http://maps.google.com/mapfiles/ms/icons/red-dot.png;-46.2056666666667;-23.3951944444444;3530607;Mogi das Cruzes;SP
"Mineradora: Extração de Areia Taboao Ltda 
Barragem: TABOÃO 03";http://maps.google.com/mapfiles/ms/icons/red-dot.png;-46.20975;-23394;3530607;Mogi das Cruzes;SP
"Mineradora: Itaquareia Ind. Extr. Minérios Ltda 
Barragem: PORTO-4A";http://maps.google.com/mapfiles/ms/icons/red-dot.png;-46.2679166666667;-23.5628055555556;3530607;Mogi das Cruzes;SP
"Mineradora: Itaquareia Ind. Extr. Minérios Ltda 
Barragem: PORTO-4B";http://maps.google.com/mapfiles/ms/icons/red-dot.png;-46.2733611111111;-23.5656388888889;3530607;Mogi das Cruzes;SP
"Mineradora: Itaquareia Ind. Extr. Minérios Ltda 
Barragem: PORTO-6B";http://maps.google.com/mapfiles/ms/icons/red-dot.png;-46.1942222222222;-23.3857777777778;3530607;Mogi das Cruzes;SP
"Mineradora: Tbk Mineração Limitada 
Barragem: TANQUE DE DECANTAÇÃO";http://maps.google.com/mapfiles/ms/icons/red-dot.png;-47.24025;-22.9384166666667;3531803;Monte Mor;SP
"Mineradora: MINERAÇÃO DIBASE PEDREIRA LTDA 
Barragem: Cascalho";http://maps.google.com/mapfiles/ms/icons/red-dot.png;-46.8716666666667;-22.7479444444444;3537107;Pedreira;SP
"Mineradora: Samaca Ferros Ltda 
Barragem: ITAPEVA";http://maps.google.com/mapfiles/ms/icons/yellow-dot.png;-48.9159722222222;-24.25375;3543006;Ribeirão Branco;SP
"Mineradora: MINERAÇÃO OURO BRANCO SALTO DE PIRAPORA LTDA ME 
Barragem: OURO BRANCO OESTE";http://maps.google.com/mapfiles/ms/icons/yellow-dot.png;-47.6666388888889;-23662;3545308;Salto de Pirapora;SP
"Mineradora: Uilson Romanha & Cia Ltda 
Barragem: PIRAPORÃO 138 III";http://maps.google.com/mapfiles/ms/icons/red-dot.png;-47.6218055555556;-23.6315555555556;3545308;Salto de Pirapora;SP
"Mineradora: PEDREIRA SARGON LTDA 
Barragem: Dique 1 (Barragem 2 -Britagem)";http://maps.google.com/mapfiles/ms/icons/yellow-dot.png;-46.2829166666667;-23.3557222222222;3546801;Santa Isabel;SP
"Mineradora: PEDREIRA SARGON LTDA 
Barragem: Dique 2";http://maps.google.com/mapfiles/ms/icons/red-dot.png;-46.2858888888889;-23.35775;3546801;Santa Isabel;SP
"Mineradora: PEDREIRA SARGON LTDA 
Barragem: Dique 3 (Barragem 1 - Portaria)";http://maps.google.com/mapfiles/ms/icons/yellow-dot.png;-46.2849444444444;-23.3566388888889;3546801;Santa Isabel;SP
"Mineradora: PEDREIRA SARGON LTDA 
Barragem: Dique 4 (Barragem 3 - Bota fora)";http://maps.google.com/mapfiles/ms/icons/red-dot.png;-46.2753333333333;-23.3568055555556;3546801;Santa Isabel;SP
"Mineradora: PEDREIRA SARGON LTDA 
Barragem: Dique 5 (Barragem 4 - Bota fora)";http://maps.google.com/mapfiles/ms/icons/red-dot.png;-46.2746944444444;-23.3560555555556;3546801;Santa Isabel;SP
"Mineradora: Geocal Mineração Ltda 
Barragem: BACIA DE DECANTAÇÃO - PLANTA I";http://maps.google.com/mapfiles/ms/icons/yellow-dot.png;-46.9182472222222;-23.4009888888889;3547304;Santana de Parnaíba;SP
"Mineradora: Pedreira Engebrita Ltda 
Barragem: engebrita";http://maps.google.com/mapfiles/ms/icons/red-dot.png;-46.3143333333333;-23.8821388888889;3548500;Santos;SP
"Mineradora: Embu S.a Engenharia e Comércio 
Barragem: Barragem de Sedimentos da Pedreira Juruaçu - BA4";http://maps.google.com/mapfiles/ms/icons/yellow-dot.png;-46.7312222222222;-23.4095555555556;3550308;São Paulo;SP
"Mineradora: L Pavan & Cia Ltda 
Barragem: CAVA 1";http://maps.google.com/mapfiles/ms/icons/red-dot.png;-46.6967777777778;-23.7851111111111;3550308;São Paulo;SP
"Mineradora: L Pavan & Cia Ltda 
Barragem: CAVA 2";http://maps.google.com/mapfiles/ms/icons/red-dot.png;-46.6988055555556;-23.7829166666667;3550308;São Paulo;SP
"Mineradora: Territorial São Paulo Mineração Ltda 
Barragem: BARRAGEM DE CLARIFICAÇÃO";http://maps.google.com/mapfiles/ms/icons/yellow-dot.png;-46.7360555555556;-23.4205555555556;3550308;São Paulo;SP
"Mineradora: Mineração Darcy R. O. e Silva Ltda 
Barragem: Lagoa 1";http://maps.google.com/mapfiles/ms/icons/yellow-dot.png;-47.6132416666667;-21.4327861111111;3550902;São Simão;SP
"Mineradora: Mineração Darcy R. O. e Silva Ltda 
Barragem: Lagoa 2";http://maps.google.com/mapfiles/ms/icons/yellow-dot.png;-47.6130555555556;-21.4303388888889;3550902;São Simão;SP
"Mineradora: Unidos Extração e Comércio de Areia e Pedra Ltda Epp 
Barragem: UNIDOS";http://maps.google.com/mapfiles/ms/icons/red-dot.png;-47.82025;-23.6191388888889;3551108;Sarapuí;SP
"Mineradora: Tech Rock Mineração Ltda. 
Barragem: Fazenda Santa Fé";http://maps.google.com/mapfiles/ms/icons/red-dot.png;-47.3908888888889;-23.5089722222222;3552205;Sorocaba;SP
"Mineradora: Conterpa, Conservação e Terraplagem e Pavimentação Ltda 
Barragem: Conterpa";http://maps.google.com/mapfiles/ms/icons/red-dot.png;-47.2386111111111;-22.8611388888889;3552403;Sumaré;SP
"Mineradora: EXTRAÇAO E COMERCIO DE AREIA QUEVEDO & SILVA LTDA 
Barragem: Quevedo 1";http://maps.google.com/mapfiles/ms/icons/red-dot.png;-47.73025;-23.3548055555556;3554003;Tatuí;SP
"Mineradora: EXTRAÇAO E COMERCIO DE AREIA QUEVEDO & SILVA LTDA 
Barragem: Quevedo 2";http://maps.google.com/mapfiles/ms/icons/red-dot.png;-47.7284444444444;-23.3559166666667;3554003;Tatuí;SP
"Mineradora: Itafos Arraias Mineração e Fertilizantes S.a. 
Barragem: BARRAGEM DE CONTENÇÃO DE REJEITOS";http://maps.google.com/mapfiles/ms/icons/yellow-dot.png;-46.8181177777778;-12.8958188888889;1702406;Arraias;TO
"Mineradora: Mineração Santa Luzia Limitada 
Barragem: SANTA LUZIA";http://maps.google.com/mapfiles/ms/icons/red-dot.png;-47.8831722222222;-11.5889444444444;1705102;Chapada da Natividade;TO
"Mineradora: Monte Sinai Mineração Ltda 
Barragem: BARRAGEM";http://maps.google.com/mapfiles/ms/icons/red-dot.png;-48.0794444444444;-10.7891666666667;1713601;Monte do Carmo;TO
"Mineradora: Geominas Minerações Ltda. 
Barragem: BARRAGEM GEOMINAS";http://maps.google.com/mapfiles/ms/icons/red-dot.png;-47.6767333333333;-11.6474166666667;1714203;Natividade;TO
"Mineradora: Geominas Minerações Ltda. 
Barragem: BARRAGEM GEOMINAS-001";http://maps.google.com/mapfiles/ms/icons/red-dot.png;-47.6761777777778;-11.6493277777778;1714203;Natividade;TO
"Mineradora: Geominas Minerações Ltda. 
Barragem: BARRAGEM GEOMINAS-002";http://maps.google.com/mapfiles/ms/icons/red-dot.png;-47.6750027777778;-11.6500027777778;1714203;Natividade;TO
